identifier,govIdentifier,RWStype,URL,name,description,siteAddressName,siteAddressStreet,siteAddressCity,siteAddressCounty,siteAddressCountry,siteAddressPostcode,latitude,longitude,telephone,openingHours,openingHoursNotes,openingHoursTransportRestrictions,ownerID,ownerName,operatorID,operatorCompanyID,operatorName,operatorAddressStreet,operatorAddressCity,operatorAddressCounty,operatorAddressCountry,operatorAddressPostcode,dateOpened,dateClosed,areaServed,proofOfResidency,accessibilityNotes,trade,ANPR,reuseShop,dateUpdated,dateValidFrom,dateValidTo
open3r-tb-eng-gmca-coop0001,,tb,https://www.coop.co.uk/store-finder/M21-7QH/349-barlow-moor-road?utm_source=gmb&utm_medium=organic&utm_campaign=gmb-349-Barlow-Moor-Road-Manchester,349 Barlow Moor Road,,Co-op Food,349 Barlow Moor Road,Manchester,Greater Manchester,eng,M21 7QH,53.432288,-2.270082,+44 161 8812115,06:00-22:00,,,,The Co-operative Group,,,The Co-operative Group,,,,,,,,,,,,,,,,
open3r-tb-eng-sry-coop0002,,tb,https://www.coop.co.uk/store-finder/CR0-6PQ/61-lower-addiscombe-road?utm_source=gmb&utm_medium=organic&utm_campaign=gmb-61-Lower-Addiscombe-Road-Croydon,61 Lower Addiscombe Road,,Co-op Food,61 Lower Addiscombe Road,Croydon,Surrey,eng,CR0 6PQ,51.380507,-0.086528,+44 20 86544068,07:00-22:00,,,,The Co-operative Group,,,The Co-operative Group,,,,,,,,,,,,,,,,
open3r-tb-eng-yor-coop0003,,tb,https://www.coop.co.uk/store-finder/YO26-4LT/york-road?utm_source=gmb&utm_medium=organic&utm_campaign=gmb-Acomb-York,Acomb,,Co-op Food,York Road,York,York,eng,YO26 4LT,53.956666,-1.120035,+44 1904 794312,07:00-22:00,,,,The Co-operative Group,,,The Co-operative Group,,,,,,,,,,,,,,,,
open3r-tb-eng-brd-coop0004,,tb,https://www.coop.co.uk/store-finder/LS29-0LY/162-main-street?utm_source=gmb&utm_medium=organic&utm_campaign=gmb-Addingham-Ilkley,Addingham,,Co-op Food,162 Main Street,Ilkley,Bradford,eng,LS29 0LY,53.943715,-1.878662,+44 1943 839461,07:00-22:00,,,,The Co-operative Group,,,The Co-operative Group,,,,,,,,,,,,,,,,
open3r-tb-eng-lds-coop0005,,tb,https://www.coop.co.uk/store-finder/LS16-6AJ/425-otley-road?utm_source=gmb&utm_medium=organic&utm_campaign=gmb-Adel-Leeds,Adel,,Co-op Food,425 Otley Road,Leeds,Leeds,eng,LS16 6AJ,53.851894,-1.592538,+44 113 2614964,07:00-22:00,,,,The Co-operative Group,,,The Co-operative Group,,,,,,,,,,,,,,,,
open3r-tb-eng-cma-coop0006,,tb,https://www.coop.co.uk/store-finder/LA14-5BJ/38-ainslie-street?utm_source=gmb&utm_medium=organic&utm_campaign=gmb-Ainslie-Street-Barrow-In-Furness,Ainslie Street,,Co-op Food,38 Ainslie Street,Barrow In Furness,Cumbria,eng,LA14 5BJ,54.121105,-3.223703,+44 1229 831339,07:00-22:00,,,,The Co-operative Group,,,The Co-operative Group,,,,,,,,,,,,,,,,
open3r-tb-eng-esx-coop0007,,tb,https://www.coop.co.uk/store-finder/BN21-1SD/1-3-albert-parade?utm_source=gmb&utm_medium=organic&utm_campaign=gmb-Albert-Parade-Eastbourne,Albert Parade,,Co-op Food,1-3 Albert Parade,Eastbourne,East Sussex,eng,BN21 1SD,50.778044,0.256235,+44 1323 723251,07:00-22:00,,,,The Co-operative Group,,,The Co-operative Group,,,,,,,,,,,,,,,,
open3r-tb-eng-dev-coop0008,,tb,https://www.coop.co.uk/store-finder/PL2-1AQ/154-158-albert-road?utm_source=gmb&utm_medium=organic&utm_campaign=gmb-Albert-Road-Devonport-Plymouth,Albert Road - Devonport,,Co-op Food,154-158 Albert Road,Plymouth,Devon,eng,PL2 1AQ,50.378962,-4.174447,+44 1752 500989,06:00-22:00,,,,The Co-operative Group,,,The Co-operative Group,,,,,,,,,,,,,,,,
open3r-tb-eng-som-coop0009,,tb,https://www.coop.co.uk/store-finder/TA24-6BB/57-alcombe-road?utm_source=gmb&utm_medium=organic&utm_campaign=gmb-Alcombe-Road-Minehead,Alcombe Road,,Co-op Food,57 Alcombe Road,Minehead,Somerset,eng,TA24 6BB,51.197639,-3.468251,+44 1643 703132,07:00-22:00,,,,The Co-operative Group,,,The Co-operative Group,,,,,,,,,,,,,,,,
open3r-tb-eng-lds-coop0010,,tb,https://www.coop.co.uk/store-finder/LS17-7HW/nursery-lane?utm_source=gmb&utm_medium=organic&utm_campaign=gmb-Alwoodley-Leeds,Alwoodley,,Co-op Food,Nursery Lane,Leeds,Leeds,eng,LS17 7HW,53.85238,-1.544627,+44 113 2662814,07:00-22:00,,,,The Co-operative Group,,,The Co-operative Group,,,,,,,,,,,,,,,,
open3r-tb-eng-wil-coop0011,,tb,https://www.coop.co.uk/store-finder/SP4-7AW/23-salisbury-street?utm_source=gmb&utm_medium=organic&utm_campaign=gmb-Amesbury-Salisbury-Street-Salisbury,Amesbury - Salisbury Street,,Co-op Food,23 Salisbury Street,Salisbury,Wiltshire,eng,SP4 7AW,51.172022,-1.780241,+44 1980 677231,07:00-22:00,,,,The Co-operative Group,,,The Co-operative Group,,,,,,,,,,,,,,,,
open3r-tb-eng-gmca-coop0012,,tb,https://www.coop.co.uk/store-finder/M4-6AJ/45-49-blossom-street?utm_source=gmb&utm_medium=organic&utm_campaign=gmb-Ancoats-Blossom-Street-Manchester,Ancoats - Blossom Street,,Co-op Food,45-49 Blossom Street,Manchester,Greater Manchester,eng,M4 6AJ,53.484997,-2.227835,+44 161 2358435,07:00-23:00,,,,The Co-operative Group,,,The Co-operative Group,,,,,,,,,,,,,,,,
open3r-tb-eng-wbk-coop0013,,tb,https://www.coop.co.uk/store-finder/RG2-9PL/27-bramshill-close,Arborfield - Bramshill Close,,Co-op Food,27 Bramshill Close,Reading,West Berkshire,eng,RG2 9PL,51.387736,-0.90353,+44 118 9762820,Mo-Sa 07:00-23:00; Su 08:00-22:00,,,,The Co-operative Group,,,The Co-operative Group,,,,,,,,,,,,,,,,
open3r-tb-eng-wil-coop0014,,tb,https://www.coop.co.uk/store-finder/SP4-7XP/archers-way?utm_source=gmb&utm_medium=organic&utm_campaign=gmb-Archers-Gate-Amesbury-Salisbury,Archers Gate - Amesbury,,Co-op Food,Archers Way,Salisbury,Wiltshire,eng,SP4 7XP,51.164213,-1.763773,+44 1980 624165,07:00-22:00,,,,The Co-operative Group,,,The Co-operative Group,,,,,,,,,,,,,,,,
open3r-tb-eng-gla-coop0015,,tb,https://www.coop.co.uk/store-finder/N19-5QT/11-19-junction-road?utm_source=gmb&utm_medium=organic&utm_campaign=gmb-Archway-London,Archway,,Co-op Food,11-19 Junction Road,London,Greater London,eng,N19 5QT,51.564979,-0.134572,+44 20 72722636,Mo-Sa 06:00-23:00; Su 12:00-18:00,,,,The Co-operative Group,,,The Co-operative Group,,,,,,,,,,,,,,,,
open3r-tb-eng-ngm-coop0016,,tb,https://www.coop.co.uk/store-finder/NG5-5HB/244-arnold-road?utm_source=gmb&utm_medium=organic&utm_campaign=gmb-Arnold-Road-Nottingham,Arnold Road,,Co-op Food,244 Arnold Road,Nottingham,Nottinghamshire,eng,NG5 5HB,52.991436,-1.167706,+44 115 9606023,07:00-22:00,,,,The Co-operative Group,,,The Co-operative Group,,,,,,,,,,,,,,,,
open3r-tb-eng-ham-coop0017,,tb,https://www.coop.co.uk/store-finder/GU12-6LG/69-ash-street?utm_source=gmb&utm_medium=organic&utm_campaign=gmb-Ash-Aldershot-Aldershot,Ash - Aldershot,,Co-op Food,69 Ash Street,Aldershot,Hampshire,eng,GU12 6LG,51.246334,-0.724293,+44 1252 333881,07:00-23:00,,,,The Co-operative Group,,,The Co-operative Group,,,,,,,,,,,,,,,,
open3r-tb-eng-nbl-coop0018,,tb,https://www.coop.co.uk/store-finder/NE63-8UJ/remscheid-way?utm_source=gmb&utm_medium=organic&utm_campaign=gmb-Ashington-Remscheid-Way-Ashington,Ashington - Remscheid Way,,Co-op Food,Remscheid Way,Ashington,Northumberland,eng,NE63 8UJ,55.172824,-1.572198,+44 1670 850428,07:00-22:00,,,,The Co-operative Group,,,The Co-operative Group,,,,,,,,,,,,,,,,
open3r-tb-eng-gmca-coop0019,,tb,https://www.coop.co.uk/store-finder/M33-5PP/12-16-green-lane?utm_source=gmb&utm_medium=organic&utm_campaign=gmb-Ashton-On-Mersey-Sale,Ashton On Mersey,,Co-op Food,12-16 Green Lane,Sale,Greater Manchester,eng,M33 5PP,53.429445,-2.341558,+44 161 9737838,07:00-22:00,,,,The Co-operative Group,,,The Co-operative Group,,,,,,,,,,,,,,,,
open3r-tb-eng-gla-coop0020,,tb,https://www.coop.co.uk/store-finder/W12-9BL/98-askew-road?utm_source=gmb&utm_medium=organic&utm_campaign=gmb-Askew-Road-London,Askew Road,,Co-op Food,98 Askew Road,London,Greater London,eng,W12 9BL,51.503401,-0.243407,+44 20 87434078,07:00-22:00,,,,The Co-operative Group,,,The Co-operative Group,,,,,,,,,,,,,,,,
open3r-tb-eng-lan-coop0021,,tb,https://www.coop.co.uk/store-finder/WN2-1XH/134-haigh-road?utm_source=gmb&utm_medium=organic&utm_campaign=gmb-Aspull-Haigh-Road-Wigan,Aspull - Haigh Road,,Co-op Food,134 Haigh Road,Wigan,Lancashire,eng,WN2 1XH,53.569634,-2.586097,+44 1942 833434,07:00-22:00,,,,The Co-operative Group,,,The Co-operative Group,,,,,,,,,,,,,,,,
open3r-tb-eng-dnc-coop0022,,tb,https://www.coop.co.uk/store-finder/DN9-3NB/hayfield-lane?utm_source=gmb&utm_medium=organic&utm_campaign=gmb-Auckley-Hayfield-Lane-Doncaster,Auckley - Hayfield Lane,,Co-op Food,Hayfield Lane,Doncaster,Doncaster,eng,DN9 3NB,53.490389,-1.022606,+44 1302 772374,07:00-22:00,,,,The Co-operative Group,,,The Co-operative Group,,,,,,,,,,,,,,,,
open3r-tb-eng-lan-coop0023,,tb,https://www.coop.co.uk/store-finder/L39-6SF/58-town-green-lane?utm_source=gmb&utm_medium=organic&utm_campaign=gmb-Aughton-Town-Green-Lane-Ormskirk,Aughton - Town Green Lane,,Co-op Food,58 Town Green Lane,Ormskirk,Lancashire,eng,L39 6SF,53.543678,-2.90524,+44 1695 422380,Mo-Sa 07:00-22:00; Su 08:00-22:00,,,,The Co-operative Group,,,The Co-operative Group,,,,,,,,,,,,,,,,
open3r-tb-eng-bst-coop0024,,tb,https://www.coop.co.uk/store-finder/BS11-9EG/193-195-avonmouth-road?utm_source=gmb&utm_medium=organic&utm_campaign=gmb-Avonmouth-Bristol,Avonmouth,,Co-op Food,193-195 Avonmouth Road,Bristol,City of Bristol,eng,BS11 9EG,51.499254,-2.695273,+44 117 9822267,06:00-23:00,,,,The Co-operative Group,,,The Co-operative Group,,,,,,,,,,,,,,,,
open3r-tb-eng-dev-coop0025,,tb,https://www.coop.co.uk/store-finder/EX13-5PA/west-street?utm_source=gmb&utm_medium=organic&utm_campaign=gmb-Axminster-Axminster,Axminster - South Street,,Co-op Food,11 South Street,Axminster,Devon,eng,EX13 5AD,50.780663,-2.999539,+44 1297 35224,Mo-Sa 07:00-22:00; Su 10:00-16:00,,,,The Co-operative Group,,,The Co-operative Group,,,,,,,,,,,,,,,,
open3r-tb-eng-buc-coop0026,,tb,https://www.coop.co.uk/store-finder/HP21-8TJ/hannon-road?utm_source=gmb&utm_medium=organic&utm_campaign=gmb-Aylesbury-Walton-Court-Aylesbury,Aylesbury - Walton Court,,Co-op Food,Hannon Road,Aylesbury,Buckinghamshire,eng,HP21 8TJ,51.80215,-0.822357,+44 1296 431479,07:00-22:00,,,,The Co-operative Group,,,The Co-operative Group,,,,,,,,,,,,,,,,
open3r-tb-eng-hal-coop0027,,tb,https://www.coop.co.uk/store-finder/WA7-4PH/66-70-balfour-street?utm_source=gmb&utm_medium=organic&utm_campaign=gmb-Balfour-St-Runcorn,Balfour St,,Co-op Food,66-70 Balfour Street,Halton,Cheshire,eng,WA7 4PH,53.336487,-2.738076,+44 1928 568280,07:00-22:00,,,,The Co-operative Group,,,The Co-operative Group,,,,,,,,,,,,,,,,
open3r-tb-eng-gla-coop0028,,tb,https://www.coop.co.uk/store-finder/NW7-1NW/retail-unit-24-royal-engineers-way?utm_source=gmb&utm_medium=organic&utm_campaign=gmb-Barnet-Millbrook-Park-Barnet,Barnet - Millbrook Park,,Co-op Food,"Retail Unit, 24 Royal
Engineers Way",Barnet,London,eng,NW7 1NW,51.609314,-0.210025,+44 20 83719296,06:00-23:00,,,,The Co-operative Group,,,The Co-operative Group,,,,,,,,,,,,,,,,
open3r-tb-eng-lan-coop0029,,tb,https://www.coop.co.uk/store-finder/BB18-6AB/rainhall-road?utm_source=gmb&utm_medium=organic&utm_campaign=gmb-Barnoldswick-Barnoldswick,Barnoldswick,,Co-op Food,Rainhall Road,Barnoldswick,Lancashire,eng,BB18 6AB,53.916611,-2.18503,+44 1282 816425,Mo-Sa 07:00-22:00; Su 10:00-16:00,,,,The Co-operative Group,,,The Co-operative Group,,,,,,,,,,,,,,,,
open3r-tb-eng-cma-coop0030,,tb,https://www.coop.co.uk/store-finder/LA14-5LF/abbey-road?utm_source=gmb&utm_medium=organic&utm_campaign=gmb-Barrow-in-Furness-Abbey-Road-Barrow-in-Furness,Barrow-in-Furness - Abbey Road,,Co-op Food,Abbey Road,Barrow-in-Furness,Cumbria,eng,LA14 5LF,54.126903,-3.214912,+44 1229 828029,06:00-23:00,,,,The Co-operative Group,,,The Co-operative Group,,,,,,,,,,,,,,,,
open3r-tb-eng-gla-coop0031,,tb,https://www.coop.co.uk/store-finder/SW11-3BA/27-35-battersea-bridge-road?utm_source=gmb&utm_medium=organic&utm_campaign=gmb-Battersea-London,Battersea,,Co-op Food,27-35 Battersea Bridge Road,London,Greater London,eng,SW11 3BA,51.479141,-0.170503,+44 20 79247489,06:00-23:00,,,,The Co-operative Group,,,The Co-operative Group,,,,,,,,,,,,,,,,
open3r-tb-eng-gla-coop0032,,tb,https://www.coop.co.uk/store-finder/SW11-3SE/8-40-chatfield-road?utm_source=gmb&utm_medium=organic&utm_campaign=gmb-Battersea-Chatfield-Road-London,Battersea - Chatfield Road,,Co-op Food,8-40 Chatfield Road,London,Greater London,eng,SW11 3SE,51.465628,-0.181482,+44 20 72283505,07:00-22:00,,,,The Co-operative Group,,,The Co-operative Group,,,,,,,,,,,,,,,,
open3r-tb-eng-gat-coop0033,,tb,https://www.coop.co.uk/store-finder/NE9-6TA/beacon-lough-road?utm_source=gmb&utm_medium=organic&utm_campaign=gmb-Beacon-Lough-Gateshead-Gateshead,Beacon Lough - Gateshead,,Co-op Food,Beacon Lough Road,Gateshead,Gateshead,eng,NE9 6TA,54.932721,-1.587462,+44 191 4877108,07:00-22:00,,,,The Co-operative Group,,,The Co-operative Group,,,,,,,,,,,,,,,,
open3r-tb-eng-gla-coop0034,,tb,https://www.coop.co.uk/store-finder/BR3-5HZ/unit-7-g03a-beckenham-junction?utm_source=gmb&utm_medium=organic&utm_campaign=gmb-Beckenham-Albermarle-Road-London,Beckenham - Albermarle Road,,Co-op Food,Unit 7 G03a Beckenham Junction,London,Greater London,eng,BR3 5HZ,51.410301,-0.023927,+44 20 86501437,06:00-23:00,,,,The Co-operative Group,,,The Co-operative Group,,,,,,,,,,,,,,,,
open3r-tb-eng-cbf-coop0035,,tb,https://www.coop.co.uk/store-finder/MK41-9JF/queens-drive?utm_source=gmb&utm_medium=organic&utm_campaign=gmb-Bedford-Queens-Drive-Bedford,Bedford - Queens Drive,,Co-op Food,Queens Drive,Bedford,Central Bedfordshire,eng,MK41 9JF,52.148763,-0.438637,+44 1234 348816,07:00-22:00,,,,The Co-operative Group,,,The Co-operative Group,,,,,,,,,,,,,,,,
open3r-tb-eng-nbl-coop0036,,tb,https://www.coop.co.uk/store-finder/NE22-5HB/10-station-road?utm_source=gmb&utm_medium=organic&utm_campaign=gmb-Bedlington-Station-Bedlington,Bedlington Station,,Co-op Food,10 Station Road,Bedlington,Northumberland,eng,NE22 5HB,55.13951,-1.569914,+44 1670 822287,07:00-22:00,,,,The Co-operative Group,,,The Co-operative Group,,,,,,,,,,,,,,,,
open3r-tb-eng-nth-coop0037,,tb,https://www.coop.co.uk/store-finder/NN3-9DG/field-mill-road?utm_source=gmb&utm_medium=organic&utm_campaign=gmb-Bellinge-Northampton,Bellinge,,Co-op Food,Field Mill Road,Northampton,Northamptonshire,eng,NN3 9DG,52.252495,-0.813712,+44 1604 415673,07:00-22:00,,,,The Co-operative Group,,,The Co-operative Group,,,,,,,,,,,,,,,,
open3r-tb-eng-gla-coop0038,,tb,https://www.coop.co.uk/store-finder/SE6-2RP/335-337-bromley-road?utm_source=gmb&utm_medium=organic&utm_campaign=gmb-Bellingham-Bromley-Road-London,Bellingham - Bromley Road,,Co-op Food,335-337 Bromley Road,London,Greater London,eng,SE6 2RP,51.429179,-0.013646,+44 20 86986425,07:00-23:00,,,,The Co-operative Group,,,The Co-operative Group,,,,,,,,,,,,,,,,
open3r-tb-eng-dby-coop0039,,tb,https://www.coop.co.uk/store-finder/DE56-0HB/17-whitemoor-lane?utm_source=gmb&utm_medium=organic&utm_campaign=gmb-Belper-Whitemoor-Lane-Belper,Belper - Whitemoor Lane,,Co-op Food,17 Whitemoor Lane,Belper,Derbyshire,eng,DE56 0HB,53.028189,-1.461478,+44 1773 599690,07:00-22:00,,,,The Co-operative Group,,,The Co-operative Group,,,,,,,,,,,,,,,,
,,tb,,Bembridge Drive - Derby,,Co-op Food,Bembridge Drive,Derby,Derbyshire,eng,DE24 0UQ,,,,,,,,The Co-operative Group,,,The Co-operative Group,,,,,,,,,,,,,,,,
,,tb,,Benfleet - Kiln Road,,Co-op Food,Kiln Road,Benfleet,Essex,eng,SS7 1TE,,,,,,,,The Co-operative Group,,,The Co-operative Group,,,,,,,,,,,,,,,,
,,tb,,Berrycroft,,Co-op Food,30 Berrycroft Lane,Stockport,Cheshire,eng,SK6 3AU,,,,,,,,The Co-operative Group,,,The Co-operative Group,,,,,,,,,,,,,,,,
,,tb,,Beverley - Lincoln Way,,Co-op Food,Lincoln Way,Beverley,East Riding of Yorkshire,eng,HU17 8RH,,,,,,,,The Co-operative Group,,,The Co-operative Group,,,,,,,,,,,,,,,,
,,tb,,Biggin Hill - Rosehill Road,,Co-op Food,16 - 18 Rosehill Road,Westerham,Kent,eng,TN16 3NF,,,,,,,,The Co-operative Group,,,The Co-operative Group,,,,,,,,,,,,,,,,
,,tb,,Billingborough - High Street,,Co-op Food,34 High Street,Sleaford,Lincolnshire,eng,NG34 0QA,,,,,,,,The Co-operative Group,,,The Co-operative Group,,,,,,,,,,,,,,,,
,,tb,,Billinge,,Co-op Food,188 Main Street,Wigan,Lancashire,eng,WN5 7PE,,,,,,,,The Co-operative Group,,,The Co-operative Group,,,,,,,,,,,,,,,,
,,tb,,Birchfield Road,,Co-op Food,231 Birchfield Road East,Northampton,Northamptonshire,eng,NN3 2HG,,,,,,,,The Co-operative Group,,,The Co-operative Group,,,,,,,,,,,,,,,,
,,tb,,Birdsfoot Lane,,Co-op Food,259 Birdsfoot Lane,Luton,Bedfordshire,eng,LU3 2HX,,,,,,,,The Co-operative Group,,,The Co-operative Group,,,,,,,,,,,,,,,,
,,tb,,Birmingham - Bristol Street,,Co-op Food,Bristol Street,Birmingham,West Midlands,eng,B15 2DE,,,,,,,,The Co-operative Group,,,The Co-operative Group,,,,,,,,,,,,,,,,
,,tb,,Birmingham - Exchange Square,,Co-op Food,46 The Priory Queensway,Birmingham,West Midlands,eng,B4 6FN,,,,,,,,The Co-operative Group,,,The Co-operative Group,,,,,,,,,,,,,,,,
,,tb,,Birmingham - Gorse Farm Road,,Co-op Food,Gorse Farm Road,Birmingham,West Midlands,eng,B43 5LT,,,,,,,,The Co-operative Group,,,The Co-operative Group,,,,,,,,,,,,,,,,
,,tb,,Birmingham - Newhall Square,,Co-op Food,7 Newhall Square,Birmingham,West Midlands,eng,B3 1RU,,,,,,,,The Co-operative Group,,,The Co-operative Group,,,,,,,,,,,,,,,,
,,tb,,Birmingham - Newhall Street,,Co-op Food,Newhall Square,Birmingham,West Midlands,eng,B3 1RU,,,,,,,,The Co-operative Group,,,The Co-operative Group,,,,,,,,,,,,,,,,
,,tb,,Birmingham - University Locks,,Co-op Food,50 Curzon Street,Birmingham,West Midlands,eng,B4 7XJ,,,,,,,,The Co-operative Group,,,The Co-operative Group,,,,,,,,,,,,,,,,
,,tb,,Bishops Rise,,Co-op Food,Unit 1,Hatfield,Hertfordshire,eng,AL10 9HE,,,,,,,,The Co-operative Group,,,The Co-operative Group,,,,,,,,,,,,,,,,
,,tb,,Bishopston - Gloucester Road,,Co-op Food,117-121 Gloucester Road,Bristol,Avon,eng,BS7 8AT,,,,,,,,The Co-operative Group,,,The Co-operative Group,,,,,,,,,,,,,,,,
,,tb,,Blackhall,,Co-op Food,Middle Street,Hartlepool,Cleveland,eng,TS27 4EA,,,,,,,,The Co-operative Group,,,The Co-operative Group,,,,,,,,,,,,,,,,
,,tb,,Blackpool - Highfield Road,,Co-op Food,Highfield Gardens,Blackpool,Lancashire,eng,FY4 5AP,,,,,,,,The Co-operative Group,,,The Co-operative Group,,,,,,,,,,,,,,,,
,,tb,,Blackpool - Normoss Road,,Co-op Food,108 Normoss Road,Blackpool,Lancashire,eng,FY3 8QP,,,,,,,,The Co-operative Group,,,The Co-operative Group,,,,,,,,,,,,,,,,
,,tb,,Blackpool - Victoria Road East,,Co-op Food,Thornton Centre,Thornton-Cleveleys,Lancashire,eng,FY5 5DX,,,,,,,,The Co-operative Group,,,The Co-operative Group,,,,,,,,,,,,,,,,
,,tb,,Bognor Regis - Chichester Road,,Co-op Food,33 Chichester Road,Bognor Regis,West Sussex,eng,PO21 2XH,,,,,,,,The Co-operative Group,,,The Co-operative Group,,,,,,,,,,,,,,,,
,,tb,,Bollington - Wellington Road,,Co-op Food,Wellington Road,Macclesfield,Cheshire,eng,SK10 5JH,,,,,,,,The Co-operative Group,,,The Co-operative Group,,,,,,,,,,,,,,,,
,,tb,,Bolton-Le-Sands - Bye Pass Road,,Co-op Food,Bye Pass Road,Carnforth,Lancashire,eng,LA5 8JA,,,,,,,,The Co-operative Group,,,The Co-operative Group,,,,,,,,,,,,,,,,
,,tb,,Bourne - Elsea Park,,Co-op Food,Sedgefield Court,Bourne,Lincolnshire,eng,PE10 0YD,,,,,,,,The Co-operative Group,,,The Co-operative Group,,,,,,,,,,,,,,,,
,,tb,,Bourne End - Oakfield Road,,Co-op Food,"Former Parade Court, Marlow Road",Bourne End,Buckinghamshire,eng,SL8 5SE,,,,,,,,The Co-operative Group,,,The Co-operative Group,,,,,,,,,,,,,,,,
,,tb,,Bournemouth - Christchurch Road,,Co-op Food,38 Christchurch Road,Bournemouth,Dorset,eng,BH1 3PD,,,,,,,,The Co-operative Group,,,The Co-operative Group,,,,,,,,,,,,,,,,
,,tb,,Bournemouth - Columbia Road,,Co-op Food,2 Columbia Road,Bournemouth,Dorset,eng,BH10 4DY,,,,,,,,The Co-operative Group,,,The Co-operative Group,,,,,,,,,,,,,,,,
,,tb,,Bournemouth - Queens Road,,Co-op Food,14 Queens Road,Bournemouth,Dorset,eng,BH2 6BE,,,,,,,,The Co-operative Group,,,The Co-operative Group,,,,,,,,,,,,,,,,
,,tb,,Bow - 383-387 Mile End Road,,Co-op Food,383-387 Mile End Road,London,Greater London,eng,E3 4QS,,,,,,,,The Co-operative Group,,,The Co-operative Group,,,,,,,,,,,,,,,,
,,tb,,Bracebridge Drive,,Co-op Food,73-75 Bracebridge Drive,Nottingham,Nottinghamshire,eng,NG8 4PH,,,,,,,,The Co-operative Group,,,The Co-operative Group,,,,,,,,,,,,,,,,
,,tb,,Bramcote Lane - Chilwell,,Co-op Food,Bramcote Lane,Nottingham,Nottinghamshire,eng,NG9 5EL,,,,,,,,The Co-operative Group,,,The Co-operative Group,,,,,,,,,,,,,,,,
,,tb,,Brighton - Lewes Road,,Co-op Food,58-62 Lewes Road,Brighton,East Sussex,eng,BN2 3HW,,,,,,,,The Co-operative Group,,,The Co-operative Group,,,,,,,,,,,,,,,,
,,tb,,Bristol - College Green,,Co-op Food,40-42a College Green,Bristol,Gloucestershire,eng,BS1 5SH,,,,,,,,The Co-operative Group,,,The Co-operative Group,,,,,,,,,,,,,,,,
,,tb,,Bristol - Lodge Road,,Co-op Food,Lodge Road,Bristol,Avon,eng,BS15 1JA,,,,,,,,The Co-operative Group,,,The Co-operative Group,,,,,,,,,,,,,,,,
,,tb,,Brixham Fore Street,,Co-op Food,75 Fore Street,Brixham,Devon,eng,TQ5 8AG,,,,,,,,The Co-operative Group,,,The Co-operative Group,,,,,,,,,,,,,,,,
,,tb,,Broadwater Crescent,,Co-op Food,247 Broadwater Crescent,Stevenage,Hertfordshire,eng,SG2 8ET,,,,,,,,The Co-operative Group,,,The Co-operative Group,,,,,,,,,,,,,,,,
,,tb,,Brockley - Brockley Road,,Co-op Food,294-296 Brockley Road,Brockley,London,eng,SE4 2RA,,,,,,,,The Co-operative Group,,,The Co-operative Group,,,,,,,,,,,,,,,,
,,tb,,Bromley Common,,Co-op Food,2 Chatterton Road,Bromley,Kent,eng,BR2 9QN,,,,,,,,The Co-operative Group,,,The Co-operative Group,,,,,,,,,,,,,,,,
,,tb,,Brook Street,,Co-op Food,22 Brook Street,Ilkley,West Yorkshire,eng,LS29 8DE,,,,,,,,The Co-operative Group,,,The Co-operative Group,,,,,,,,,,,,,,,,
,,tb,,Broomhill Road,,Co-op Food,68 Broomhill Road,Bristol,Avon,eng,BS4 4NZ,,,,,,,,The Co-operative Group,,,The Co-operative Group,,,,,,,,,,,,,,,,
,,tb,,Buckingham Road,,Co-op Food,67b Cheadle Road,Cheadle,Cheshire,eng,SK8 5DW,,,,,,,,The Co-operative Group,,,The Co-operative Group,,,,,,,,,,,,,,,,
,,tb,,Bunbury,,Co-op Food,Bunbury Lane,Tarporley,Cheshire,eng,CW6 9QS,,,,,,,,The Co-operative Group,,,The Co-operative Group,,,,,,,,,,,,,,,,
,,tb,,Burghfield,,Co-op Food,31-33 Clayhill Road,Reading,Berkshire,eng,RG7 3HF,,,,,,,,The Co-operative Group,,,The Co-operative Group,,,,,,,,,,,,,,,,
,,tb,,Burtonwood - Chapel Lane,,Co-op Food,Chapel Lane,Warrington,Cheshire,eng,WA5 4PS,,,,,,,,The Co-operative Group,,,The Co-operative Group,,,,,,,,,,,,,,,,
,,tb,,Bushbury,,Co-op Food,Kempthorne Avenue,Wolverhampton,West Midlands,eng,WV10 9UN,,,,,,,,The Co-operative Group,,,The Co-operative Group,,,,,,,,,,,,,,,,
,,tb,,Buxton Road,,Co-op Food,1-3 Buxton Road,High Peak,Derbyshire,eng,SK23 7HT,,,,,,,,The Co-operative Group,,,The Co-operative Group,,,,,,,,,,,,,,,,
,,tb,,Byfleet,,Co-op Food,2 Oyster Lane,West Byfleet,Surrey,eng,KT14 7DU,,,,,,,,The Co-operative Group,,,The Co-operative Group,,,,,,,,,,,,,,,,
,,tb,,Cabin Lane,,Co-op Food,1 Cabin Lane,Oswestry,Shropshire,eng,SY11 2DZ,,,,,,,,The Co-operative Group,,,The Co-operative Group,,,,,,,,,,,,,,,,
,,tb,,Caledonian Road,,Co-op Food,303-311 Caledonian Road,London,Greater London,eng,N1 1DT,,,,,,,,The Co-operative Group,,,The Co-operative Group,,,,,,,,,,,,,,,,
,,tb,,Camberley - Frimley Road,,Co-op Food,Frimley Road,Camberley,Surrey,eng,GU15 2QN,,,,,,,,The Co-operative Group,,,The Co-operative Group,,,,,,,,,,,,,,,,
,,tb,,Camberwell New Road,,Co-op Food,177-183 Camberwell New Road,London,Greater London,eng,SE5 0TJ,,,,,,,,The Co-operative Group,,,The Co-operative Group,,,,,,,,,,,,,,,,
,,tb,,Cambridge,,Co-op Food,2 Brookgate,Cambridge,Cambridgeshire,eng,CB1 2FF,,,,,,,,The Co-operative Group,,,The Co-operative Group,,,,,,,,,,,,,,,,
,,tb,,Cambridge - Green End Road,,Co-op Food,414 Milton Road,Cambridge,Cambridgeshire,eng,CB4 1SU,,,,,,,,The Co-operative Group,,,The Co-operative Group,,,,,,,,,,,,,,,,
,,tb,,Cambridge - Mill Road West,,Co-op Food,44a Mill Road,Cambridge,Cambridgeshire,eng,CB1 2AS,,,,,,,,The Co-operative Group,,,The Co-operative Group,,,,,,,,,,,,,,,,
,,tb,,Cambridge - Mitcham’s Corner,,Co-op Food,Milton Road,Cambridge,Cambridgeshire,eng,CB4 1UY,,,,,,,,The Co-operative Group,,,The Co-operative Group,,,,,,,,,,,,,,,,
,,tb,,Cambridge - Perne Road,,Co-op Food,115 - 117 Perne Road,Cambridge,Cambridgeshire,eng,CB1 3SB,,,,,,,,The Co-operative Group,,,The Co-operative Group,,,,,,,,,,,,,,,,
,,tb,,Cambridge - The Marque,,Co-op Food,Hills Road,Cambridge,Cambridgeshire,eng,CB2 8RJ,,,,,,,,The Co-operative Group,,,The Co-operative Group,,,,,,,,,,,,,,,,
,,tb,,Cambridge Road - Churchtown,,Co-op Food,142 Cambridge Road,Southport,Merseyside,eng,PR9 9RZ,,,,,,,,The Co-operative Group,,,The Co-operative Group,,,,,,,,,,,,,,,,
,,tb,,Camden - Camley Street,,Co-op Food,Unit 1 103a Camley Street,London,Greater London,eng,N1C 4PF,,,,,,,,The Co-operative Group,,,The Co-operative Group,,,,,,,,,,,,,,,,
,,tb,,Camden - Chalk Farm Station,,Co-op Food,8 Haverstock Hill,London,Greater London,eng,NW3 2BL,,,,,,,,The Co-operative Group,,,The Co-operative Group,,,,,,,,,,,,,,,,
,,tb,,Camden - North Road,,Co-op Food,24 North Road,London,Greater London,eng,N7 9GF,,,,,,,,The Co-operative Group,,,The Co-operative Group,,,,,,,,,,,,,,,,
,,tb,,Camden Parkway,,Co-op Food,73-74 Parkway,London,Greater London,eng,NW1 7AH,,,,,,,,The Co-operative Group,,,The Co-operative Group,,,,,,,,,,,,,,,,
,,tb,,Cannock - Longford Road,,Co-op Food,Longford Road,Cannock,Staffordshire,eng,WS11 1NE,,,,,,,,The Co-operative Group,,,The Co-operative Group,,,,,,,,,,,,,,,,
,,tb,,Cantley Lane - Doncaster,,Co-op Food,Goodison Boulevard,Doncaster,South Yorkshire,eng,DN4 6BT,,,,,,,,The Co-operative Group,,,The Co-operative Group,,,,,,,,,,,,,,,,
,,tb,,Canvey Island - Canvey Road,,Co-op Food,Canvey Road,Canvey Island,Essex,eng,SS8 0QA,,,,,,,,The Co-operative Group,,,The Co-operative Group,,,,,,,,,,,,,,,,
,,tb,,Carlton Parade,,Co-op Food,13-14 Carlton Parade,Orpington,Kent,eng,BR6 0JB,,,,,,,,The Co-operative Group,,,The Co-operative Group,,,,,,,,,,,,,,,,
,,tb,,Carrington,,Co-op Food,365 Mansfield Road,Nottingham,Nottinghamshire,eng,NG5 2DA,,,,,,,,The Co-operative Group,,,The Co-operative Group,,,,,,,,,,,,,,,,
,,tb,,Carshalton Beeches,,Co-op Food,89-91 Banstead Road,Carshalton,Surrey,eng,SM5 3NP,,,,,,,,The Co-operative Group,,,The Co-operative Group,,,,,,,,,,,,,,,,
,,tb,,Castle Road,,Co-op Food,74 Castle Road,Salisbury,Wiltshire,eng,SP1 3RR,,,,,,,,The Co-operative Group,,,The Co-operative Group,,,,,,,,,,,,,,,,
,,tb,,Catshill - Gibbs Lane,,Co-op Food,30 Gibbs Lane,Bromsgrove,Worcestershire,eng,B61 0JR,,,,,,,,The Co-operative Group,,,The Co-operative Group,,,,,,,,,,,,,,,,
,,tb,,Catterall - Garstang Road,,Co-op Food,Westfield Road,Preston,Lancashire,eng,PR3 0EN,,,,,,,,The Co-operative Group,,,The Co-operative Group,,,,,,,,,,,,,,,,
,,tb,,Chalfont St Giles,,Co-op Food,12 High Street,Chalfont St. Giles,Buckinghamshire,eng,HP8 4QA,,,,,,,,The Co-operative Group,,,The Co-operative Group,,,,,,,,,,,,,,,,
,,tb,,Cheadle Hulme - Turves Road,,Co-op Food,136B & 136C Turves Road,Cheadle,Cheshire,eng,SK8 6AW,,,,,,,,The Co-operative Group,,,The Co-operative Group,,,,,,,,,,,,,,,,
,,tb,,Chester - Christleton Road,,Co-op Food,142 Christleton Road,Chester,Cheshire,eng,CH3 5TD,,,,,,,,The Co-operative Group,,,The Co-operative Group,,,,,,,,,,,,,,,,
,,tb,,Chesterfield - Ashgate Road,,Co-op Food,240 Ashgate Road,Chesterfield,Derbyshire,eng,S40 4AW,,,,,,,,The Co-operative Group,,,The Co-operative Group,,,,,,,,,,,,,,,,
,,tb,,Chesterfield - Spital Lane,,Co-op Food,Spital Lane,Chesterfield,Derbyshire,eng,S41 0HL,,,,,,,,The Co-operative Group,,,The Co-operative Group,,,,,,,,,,,,,,,,
,,tb,,Chichester - East Street,,Co-op Food,52 East Street,Chichester,West Sussex,eng,PO19 1JG,,,,,,,,The Co-operative Group,,,The Co-operative Group,,,,,,,,,,,,,,,,
,,tb,,Childs Hill - Finchley Road,,Co-op Food,713 Finchley Road,Brent,London,eng,NW11 8AT,,,,,,,,The Co-operative Group,,,The Co-operative Group,,,,,,,,,,,,,,,,
,,tb,,Chiswick - Station Parade,,Co-op Food,6 Station Parade,London,Greater London,eng,W4 3HD,,,,,,,,The Co-operative Group,,,The Co-operative Group,,,,,,,,,,,,,,,,
,,tb,,Chorley Old Road - Whittle Le Woods,,Co-op Food,144 Chorley Old Road,Chorley,Lancashire,eng,PR6 7LR,,,,,,,,The Co-operative Group,,,The Co-operative Group,,,,,,,,,,,,,,,,
,,tb,,Chorlton - Beech Road,,Co-op Food,129 Beech Road,Manchester,Greater Manchester,eng,M21 9EQ,,,,,,,,The Co-operative Group,,,The Co-operative Group,,,,,,,,,,,,,,,,
,,tb,,Church Lane,,Co-op Food,136-138 Church Lane,Waltham Cross,Hertfordshire,eng,EN8 0EA,,,,,,,,The Co-operative Group,,,The Co-operative Group,,,,,,,,,,,,,,,,
,,tb,,Church Street - Orrell,,Co-op Food,40 Church Street,Wigan,Lancashire,eng,WN5 8TG,,,,,,,,The Co-operative Group,,,The Co-operative Group,,,,,,,,,,,,,,,,
,,tb,,Clapham - Abbeville Road,,Co-op Food,56-58 Abbeville Road,London,Greater London,eng,SW4 9NF,,,,,,,,The Co-operative Group,,,The Co-operative Group,,,,,,,,,,,,,,,,
,,tb,,Clapton - Chatsworth Road,,Co-op Food,21-23 Chatsworth Road,London,Greater London,eng,E5 0LH,,,,,,,,The Co-operative Group,,,The Co-operative Group,,,,,,,,,,,,,,,,
,,tb,,Clarence Road - Sutton Coldfield,,Co-op Food,316 Clarence Road,Sutton Coldfield,West Midlands,eng,B74 4LU,,,,,,,,The Co-operative Group,,,The Co-operative Group,,,,,,,,,,,,,,,,
,,tb,,Clayton - Clayton Road,,Co-op Food,93 Clayton Road,Newcastle-Under-Lyme,Staffordshire,eng,ST5 3NE,,,,,,,,The Co-operative Group,,,The Co-operative Group,,,,,,,,,,,,,,,,
,,tb,,Coastal House,,Co-op Food,9 Abingdon Street,Blackpool,Lancashire,eng,FY1 1DG,,,,,,,,The Co-operative Group,,,The Co-operative Group,,,,,,,,,,,,,,,,
,,tb,,Colehill,,Co-op Food,1 Smugglers Lane,Wimborne,Dorset,eng,BH21 2RX,,,,,,,,The Co-operative Group,,,The Co-operative Group,,,,,,,,,,,,,,,,
,,tb,,Colindale Station,,Co-op Food,130 Colindale Avenue,London,Greater London,eng,NW9 5HE,,,,,,,,The Co-operative Group,,,The Co-operative Group,,,,,,,,,,,,,,,,
,,tb,,Colliers Wood Station,,Co-op Food,Units 5 and 11 Christchurch Road,London,Greater London,eng,SW19 2FA,,,,,,,,The Co-operative Group,,,The Co-operative Group,,,,,,,,,,,,,,,,
,,tb,,Colney Road,,Co-op Food,76 Colney Road,Dartford,Kent,eng,DA1 1UH,,,,,,,,The Co-operative Group,,,The Co-operative Group,,,,,,,,,,,,,,,,
,,tb,,Coppenhall,,Co-op Food,"Unit 1, Parkers Road",Crewe,Cheshire,eng,CW1 4PY,,,,,,,,The Co-operative Group,,,The Co-operative Group,,,,,,,,,,,,,,,,
,,tb,,Corbridge - Hill Street,,Co-op Food,4-6 Hill Street,Corbridge,Northumberland,eng,NE45 5AA,,,,,,,,The Co-operative Group,,,The Co-operative Group,,,,,,,,,,,,,,,,
,,tb,,Corfe Mullen - Towers Way,,Co-op Food,46 Wareham Road,Wimborne,Dorset,eng,BH21 3LE,,,,,,,,The Co-operative Group,,,The Co-operative Group,,,,,,,,,,,,,,,,
,,tb,,Cornbrook Hub,,Co-op Food,254 Chester Road,Manchester,Greater Manchester,eng,M15 4EX,,,,,,,,The Co-operative Group,,,The Co-operative Group,,,,,,,,,,,,,,,,
,,tb,,Cornwall Services,,Co-op Food,Victoria Roche,St Austell,Cornwall,eng,PL26 8UF,,,,,,,,The Co-operative Group,,,The Co-operative Group,,,,,,,,,,,,,,,,
,,tb,,Costessey - Kestral Avenue,,Co-op Food,Unit 1 Kestral Avenue,Norwich,Norfolk,eng,NR8 5AZ,,,,,,,,The Co-operative Group,,,The Co-operative Group,,,,,,,,,,,,,,,,
,,tb,,Cotswold Road,,Co-op Food,47 Cotswold Road,Warrington,Cheshire,eng,WA2 9SF,,,,,,,,The Co-operative Group,,,The Co-operative Group,,,,,,,,,,,,,,,,
,,tb,,Cove - Fernhill Road,,Co-op Food,318-320 Fernhill Road,Farnborough,Hampshire,eng,GU14 9EF,,,,,,,,The Co-operative Group,,,The Co-operative Group,,,,,,,,,,,,,,,,
,,tb,,Coventry - Fairfax Street,,Co-op Food,Fairfax Street,Coventry,West Midlands,eng,CV1 5RY,,,,,,,,The Co-operative Group,,,The Co-operative Group,,,,,,,,,,,,,,,,
,,tb,,Cowfold - The Street,,Co-op Food,The Street,Horsham,West Sussex,eng,RH13 8BT,,,,,,,,The Co-operative Group,,,The Co-operative Group,,,,,,,,,,,,,,,,
,,tb,,Cowley - Littlemore Road,,Co-op Food,27 Littlemore Road,Oxford,Oxfordshire,eng,OX4 3SS,,,,,,,,The Co-operative Group,,,The Co-operative Group,,,,,,,,,,,,,,,,
,,tb,,Creekmoor,,Co-op Food,67 Creekmoor Lane,Poole,Dorset,eng,BH17 7BW,,,,,,,,The Co-operative Group,,,The Co-operative Group,,,,,,,,,,,,,,,,
,,tb,,Crewe - Remer Street,,Co-op Food,1C Remer Street,Crewe,Cheshire,eng,CW1 4LS,,,,,,,,The Co-operative Group,,,The Co-operative Group,,,,,,,,,,,,,,,,
,,tb,,Cricklewood - Cricklewood Broadway,,Co-op Food,22-26 Cricklewood Broadway,London,Greater London,eng,NW2 3HD,,,,,,,,The Co-operative Group,,,The Co-operative Group,,,,,,,,,,,,,,,,
,,tb,,Cricklewood Lane - Cricklewood,,Co-op Food,140 Cricklewood Lane,London,Greater London,eng,NW2 2DT,,,,,,,,The Co-operative Group,,,The Co-operative Group,,,,,,,,,,,,,,,,
,,tb,,Crofton Park,,Co-op Food,383 Brockley Road,London,Greater London,eng,SE4 2PH,,,,,,,,The Co-operative Group,,,The Co-operative Group,,,,,,,,,,,,,,,,
,,tb,,Cropwell Bishop - Nottingham Road,,Co-op Food,4 Nottingham Road,Nottingham,Nottinghamshire,eng,NG12 3BQ,,,,,,,,The Co-operative Group,,,The Co-operative Group,,,,,,,,,,,,,,,,
,,tb,,Crosland Moor,,Co-op Food,9 Park Road West,Huddersfield,West Yorkshire,eng,HD4 5RX,,,,,,,,The Co-operative Group,,,The Co-operative Group,,,,,,,,,,,,,,,,
,,tb,,Cross Hills,,Co-op Food,14 Main Street,Keighley,West Yorkshire,eng,BD20 8TB,,,,,,,,The Co-operative Group,,,The Co-operative Group,,,,,,,,,,,,,,,,
,,tb,,Cross Lane,,Co-op Food,10-12 Cross Lane,Wirral,Merseyside,eng,CH63 3AL,,,,,,,,The Co-operative Group,,,The Co-operative Group,,,,,,,,,,,,,,,,
,,tb,,Cross Street - Sale,,Co-op Food,137 - 149 Cross Street,Sale,Cheshire,eng,M33 7JW,,,,,,,,The Co-operative Group,,,The Co-operative Group,,,,,,,,,,,,,,,,
,,tb,,Crouch End - The Broadway,,Co-op Food,21-23 The Broadway,London,Greater London,eng,N8 8DU,,,,,,,,The Co-operative Group,,,The Co-operative Group,,,,,,,,,,,,,,,,
,,tb,,Crow Lane,,Co-op Food,149 Crow Lane,Bristol,Avon,eng,BS10 7DR,,,,,,,,The Co-operative Group,,,The Co-operative Group,,,,,,,,,,,,,,,,
,,tb,,Croydon - Lansdowne Road,,Co-op Food,6/6A Lansdowne Road,Croydon,Surrey,eng,CR0 2BX,,,,,,,,The Co-operative Group,,,The Co-operative Group,,,,,,,,,,,,,,,,
,,tb,,Cuxton,,Co-op Food,93 Bush Road,Rochester,Kent,eng,ME2 1EY,,,,,,,,The Co-operative Group,,,The Co-operative Group,,,,,,,,,,,,,,,,
,,tb,,Dalston Square - London,,Co-op Food,Dalston Square,London,Greater London,eng,E8 3FT,,,,,,,,The Co-operative Group,,,The Co-operative Group,,,,,,,,,,,,,,,,
,,tb,,Denton Street,,Co-op Food,Denton Street,Carlisle,Cumbria,eng,CA2 5EN,,,,,,,,The Co-operative Group,,,The Co-operative Group,,,,,,,,,,,,,,,,
,,tb,,Derbyshire Lane,,Co-op Food,229 Derbyshire Lane,Sheffield,South Yorkshire,eng,S8 8SD,,,,,,,,The Co-operative Group,,,The Co-operative Group,,,,,,,,,,,,,,,,
,,tb,,Dickens Estate,,Co-op Food,Dickens Estate,Rochester,Kent,eng,ME1 2LQ,,,,,,,,The Co-operative Group,,,The Co-operative Group,,,,,,,,,,,,,,,,
,,tb,,Didcot,,Co-op Food,202 Broadway,Didcot,Oxfordshire,eng,OX11 8RN,,,,,,,,The Co-operative Group,,,The Co-operative Group,,,,,,,,,,,,,,,,
,,tb,,Didsbury,,Co-op Food,756-758 Wilmslow Road,Manchester,Greater Manchester,eng,M20 2DW,,,,,,,,The Co-operative Group,,,The Co-operative Group,,,,,,,,,,,,,,,,
,,tb,,Dines Green,,Co-op Food,53 Gresham Road,Worcester,Worcestershire,eng,WR2 5QS,,,,,,,,The Co-operative Group,,,The Co-operative Group,,,,,,,,,,,,,,,,
,,tb,,Ditton,,Co-op Food,231 Liverpool Road,Widnes,Cheshire,eng,WA8 7HL,,,,,,,,The Co-operative Group,,,The Co-operative Group,,,,,,,,,,,,,,,,
,,tb,,Dorchester,,Co-op Food,Trinity Square,Dorchester,Dorset,eng,DT1 1TT,,,,,,,,The Co-operative Group,,,The Co-operative Group,,,,,,,,,,,,,,,,
,,tb,,Dore Devenshire Terr,,Co-op Food,Devonshire Terrace Road,Sheffield,South Yorkshire,eng,S17 3EF,,,,,,,,The Co-operative Group,,,The Co-operative Group,,,,,,,,,,,,,,,,
,,tb,,Dover House - Lower Marsh,,Co-op Food,1 Lower Marsh,London,Greater London,eng,SE1 7NT,,,,,,,,The Co-operative Group,,,The Co-operative Group,,,,,,,,,,,,,,,,
,,tb,,Duke Street - Devonport,,Co-op Food,8 George Street,Plymouth,Devon,eng,PL1 4HN,,,,,,,,The Co-operative Group,,,The Co-operative Group,,,,,,,,,,,,,,,,
,,tb,,Dulwich,,Co-op Food,26 Forest Hill Road,London,Greater London,eng,SE22 0RR,,,,,,,,The Co-operative Group,,,The Co-operative Group,,,,,,,,,,,,,,,,
,,tb,,Dunstable - Katherine Drive,,Co-op Food,37-43 Katherine Drive,Dunstable,Bedfordshire,eng,LU5 4NP,,,,,,,,The Co-operative Group,,,The Co-operative Group,,,,,,,,,,,,,,,,
,,tb,,Durham - Framwellgate Moor,,Co-op Food,Dryburn View,Durham,County Durham,eng,DH1 5AP,,,,,,,,The Co-operative Group,,,The Co-operative Group,,,,,,,,,,,,,,,,
,,tb,,Durham Road - Bowburn,,Co-op Food,Durham Road,Durham,County Durham,eng,DH6 5AT,,,,,,,,The Co-operative Group,,,The Co-operative Group,,,,,,,,,,,,,,,,
,,tb,,Durnsford Road - Wimbledon Park,,Co-op Food,23 Durnsford Road,London,Greater London,eng,SW19 8GT,,,,,,,,The Co-operative Group,,,The Co-operative Group,,,,,,,,,,,,,,,,
,,tb,,Eaglescliffe,,Co-op Food,1 Sunningdale Drive,Stockton-On-Tees,Cleveland,eng,TS16 9JP,,,,,,,,The Co-operative Group,,,The Co-operative Group,,,,,,,,,,,,,,,,
,,tb,,Easingwold,,Co-op Food,Market Place,York,North Yorkshire,eng,YO61 3AG,,,,,,,,The Co-operative Group,,,The Co-operative Group,,,,,,,,,,,,,,,,
,,tb,,East Barnet - East Barnet Road,,Co-op Food,233 East Barnet Road,Barnet,Hertfordshire,eng,EN4 8SS,,,,,,,,The Co-operative Group,,,The Co-operative Group,,,,,,,,,,,,,,,,
,,tb,,Ebbsfleet - Castle Hill,,Co-op Food,73-77 Cherry Orchard,Ebbsfleet,Kent,eng,DA10 0DF,,,,,,,,The Co-operative Group,,,The Co-operative Group,,,,,,,,,,,,,,,,
,,tb,,Ebbsfleet - Southfleet Road,,Co-op Food,2-4 Talbot Lane,Swanscombe,Kent,eng,DA10 1AZ,,,,,,,,The Co-operative Group,,,The Co-operative Group,,,,,,,,,,,,,,,,
,,tb,,Edgbaston - Wheeleys Road,,Co-op Food,Wheeleys Road,Birmingham,West Midlands,eng,B15 2LJ,,,,,,,,The Co-operative Group,,,The Co-operative Group,,,,,,,,,,,,,,,,
,,tb,,Edgeley,,Co-op Food,84 Castle Street,Stockport,Cheshire,eng,SK3 9AL,,,,,,,,The Co-operative Group,,,The Co-operative Group,,,,,,,,,,,,,,,,
,,tb,,Edgware - Hale Lane,,Co-op Food,157-161 Hale Lane,London,Greater London,eng,HA8 9QW,,,,,,,,The Co-operative Group,,,The Co-operative Group,,,,,,,,,,,,,,,,
,,tb,,Elworth - Lawton Way,,Co-op Food,Lawton Way,Sandbach,Cheshire,eng,CW11 1TF,,,,,,,,The Co-operative Group,,,The Co-operative Group,,,,,,,,,,,,,,,,
,,tb,,Emerson Valley,,Co-op Food,24 Winfold Lane,Milton Keynes,Buckinghamshire,eng,MK4 2SH,,,,,,,,The Co-operative Group,,,The Co-operative Group,,,,,,,,,,,,,,,,
,,tb,,Endon - Leek Road,,Co-op Food,138-140 Leek Road,Stoke-On-Trent,Staffordshire,eng,ST9 9EW,,,,,,,,The Co-operative Group,,,The Co-operative Group,,,,,,,,,,,,,,,,
,,tb,,Epsom,,Co-op Food,9 Upper High Street,Epsom,Surrey,eng,KT17 4QY,,,,,,,,The Co-operative Group,,,The Co-operative Group,,,,,,,,,,,,,,,,
,,tb,,Erleigh Road,,Co-op Food,55-57 Erleigh Road,Reading,Berkshire,eng,RG1 5NL,,,,,,,,The Co-operative Group,,,The Co-operative Group,,,,,,,,,,,,,,,,
,,tb,,Ewell - Chessington Road,,Co-op Food,82-84 Chessington Road,Ewell,Surrey,eng,KT19 9GG,,,,,,,,The Co-operative Group,,,The Co-operative Group,,,,,,,,,,,,,,,,
,,tb,,Exeter - Belgrave Road,,Co-op Food,Unit 3-3a Belgrave Road,Exeter,Devon,eng,EX1 2LB,,,,,,,,The Co-operative Group,,,The Co-operative Group,,,,,,,,,,,,,,,,
,,tb,,Exeter - Queen Street,,Co-op Food,37-39 Queen Street,Exeter,Devon,eng,EX4 3SR,,,,,,,,The Co-operative Group,,,The Co-operative Group,,,,,,,,,,,,,,,,
,,tb,,Exeter - West Clyst,,Co-op Food,Coaker Road,Exeter,Devon,eng,EX1 3TG,,,,,,,,The Co-operative Group,,,The Co-operative Group,,,,,,,,,,,,,,,,
,,tb,,Falmouth - Cliff Road,,Co-op Food,Cliff Road,Falmouth,Cornwall,eng,TR11 4NP,,,,,,,,The Co-operative Group,,,The Co-operative Group,,,,,,,,,,,,,,,,
,,tb,,Farnborough Park,,Co-op Food,36-40A Woburn Avenue,Farnborough,Hampshire,eng,GU14 7EF,,,,,,,,The Co-operative Group,,,The Co-operative Group,,,,,,,,,,,,,,,,
,,tb,,Farringdon - Turnmill Street,,Co-op Food,94-98 Turnmill Street,London,Greater London,eng,EC1M 5QP,,,,,,,,The Co-operative Group,,,The Co-operative Group,,,,,,,,,,,,,,,,
,,tb,,Fenchurch Street - London,,Co-op Food,94-95 Fenchurch Street,London,Greater London,eng,EC3A 2DB,,,,,,,,The Co-operative Group,,,The Co-operative Group,,,,,,,,,,,,,,,,
,,tb,,Finedon,,Co-op Food,10 Wellingborough Road,Wellingborough,Northamptonshire,eng,NN9 5JS,,,,,,,,The Co-operative Group,,,The Co-operative Group,,,,,,,,,,,,,,,,
,,tb,,Finsbury - Tysoe Street,,Co-op Food,1-7 Tysoe Street,London,Greater London,eng,EC1R 4SA,,,,,,,,The Co-operative Group,,,The Co-operative Group,,,,,,,,,,,,,,,,
,,tb,,Finstock,,Co-op Food,Finstock Avenue,Stoke-On-Trent,Staffordshire,eng,ST3 3JS,,,,,,,,The Co-operative Group,,,The Co-operative Group,,,,,,,,,,,,,,,,
,,tb,,Fir Tree Lane,,Co-op Food,4 Fir Tree Lane,Dukinfield,Cheshire,eng,SK16 5FW,,,,,,,,The Co-operative Group,,,The Co-operative Group,,,,,,,,,,,,,,,,
,,tb,,Fishburn,,Co-op Food,10 Butterwick Road,Stockton-On-Tees,Cleveland,eng,TS21 4AP,,,,,,,,The Co-operative Group,,,The Co-operative Group,,,,,,,,,,,,,,,,
,,tb,,Fishermead,,Co-op Food,69 Fishermead Boulevard,Milton Keynes,Buckinghamshire,eng,MK6 2AD,,,,,,,,The Co-operative Group,,,The Co-operative Group,,,,,,,,,,,,,,,,
,,tb,,Fleet,,Co-op Food,20 Kings Road,Fleet,Hampshire,eng,GU51 3ST,,,,,,,,The Co-operative Group,,,The Co-operative Group,,,,,,,,,,,,,,,,
,,tb,,Fleetwood Road North,,Co-op Food,2 Poachers Way,Thornton Cleveleys,Lancashire,eng,FY5 2WF,,,,,,,,The Co-operative Group,,,The Co-operative Group,,,,,,,,,,,,,,,,
,,tb,,Flitch Green - Hallett Road,,Co-op Food,24 Hallett Road,Dunmow,Essex,eng,CM6 3FY,,,,,,,,The Co-operative Group,,,The Co-operative Group,,,,,,,,,,,,,,,,
,,tb,,Florence Park,,Co-op Food,Belgrave Road,Stoke-On-Trent,Staffordshire,eng,ST3 4NW,,,,,,,,The Co-operative Group,,,The Co-operative Group,,,,,,,,,,,,,,,,
,,tb,,Forest Hill - Stanstead Road,,Co-op Food,107-113 Stanstead Road,London,Greater London,eng,SE23 1HH,,,,,,,,The Co-operative Group,,,The Co-operative Group,,,,,,,,,,,,,,,,
,,tb,,Forest Town,,Co-op Food,1 Main Avenue,"Forest Town, Mansfield",Nottinghamshire,eng,NG19 0BS,,,,,,,,The Co-operative Group,,,The Co-operative Group,,,,,,,,,,,,,,,,
,,tb,,Formby - Queens Road,,Co-op Food,37-39 Queens Road,Liverpool,Merseyside,eng,L37 2HG,,,,,,,,The Co-operative Group,,,The Co-operative Group,,,,,,,,,,,,,,,,
,,tb,,Fortess Road,,Co-op Food,9 Fortess Road,London,Greater London,eng,NW5 1AS,,,,,,,,The Co-operative Group,,,The Co-operative Group,,,,,,,,,,,,,,,,
,,tb,,Foxholes,,Co-op Food,Foxhole Road,Paignton,Devon,eng,TQ3 3SS,,,,,,,,The Co-operative Group,,,The Co-operative Group,,,,,,,,,,,,,,,,
,,tb,,Fulham - Lillie Road,,Co-op Food,314 Lillie Road,London,Greater London,eng,SW6 7PS,,,,,,,,The Co-operative Group,,,The Co-operative Group,,,,,,,,,,,,,,,,
,,tb,,Fulham - Munster Road,,Co-op Food,227-233 Munster Road,London,Greater London,eng,SW6 6BT,,,,,,,,The Co-operative Group,,,The Co-operative Group,,,,,,,,,,,,,,,,
,,tb,,Fulham - North End Road,,Co-op Food,254 North End Road,London,Greater London,eng,SW6 1NJ,,,,,,,,The Co-operative Group,,,The Co-operative Group,,,,,,,,,,,,,,,,
,,tb,,Gidea Park - Brentwood Road,,Co-op Food,378 - 392 Brentwood Road,Romford,Essex,eng,RM2 5TD,,,,,,,,The Co-operative Group,,,The Co-operative Group,,,,,,,,,,,,,,,,
,,tb,,Golcar,,Co-op Food,119 Town End,Huddersfield,West Yorkshire,eng,HD7 4QA,,,,,,,,The Co-operative Group,,,The Co-operative Group,,,,,,,,,,,,,,,,
,,tb,,Goodison Boulevard,,Co-op Food,Goodison Boulevard,Doncaster,South Yorkshire,eng,DN4 6NL,,,,,,,,The Co-operative Group,,,The Co-operative Group,,,,,,,,,,,,,,,,
,,tb,,Gravesend - East Milton Road,,Co-op Food,1-2 East Milton Road,Gravesend,Kent,eng,DA12 2JL,,,,,,,,The Co-operative Group,,,The Co-operative Group,,,,,,,,,,,,,,,,
,,tb,,Greasbrough,,Co-op Food,1 Fenton Road,Rotherham,South Yorkshire,eng,S61 4RD,,,,,,,,The Co-operative Group,,,The Co-operative Group,,,,,,,,,,,,,,,,
,,tb,,Great Ayton,,Co-op Food,117 High Street,Middlesbrough,Cleveland,eng,TS9 6BW,,,,,,,,The Co-operative Group,,,The Co-operative Group,,,,,,,,,,,,,,,,
,,tb,,Great Lumley - 1 & 2 Front Street,,Co-op Food,Front Street,Chester Le Street,County Durham,eng,DH3 4JB,,,,,,,,The Co-operative Group,,,The Co-operative Group,,,,,,,,,,,,,,,,
,,tb,,Green Quarter - Cypress Place,,Co-op Food,Unit 2 Cypress Place,Manchester,Greater Manchester,eng,M4 4EX,,,,,,,,The Co-operative Group,,,The Co-operative Group,,,,,,,,,,,,,,,,
,,tb,,Greenford - Greenford Green,,Co-op Food,Oldfield Lane North,Greenford,Greater London,eng,UB6 0HE,,,,,,,,The Co-operative Group,,,The Co-operative Group,,,,,,,,,,,,,,,,
,,tb,,Greenwich - Banning Street,,Co-op Food,51 Banning Street,London,Greater London,eng,SE10 0FE,,,,,,,,The Co-operative Group,,,The Co-operative Group,,,,,,,,,,,,,,,,
,,tb,,Greenwich - Millennium Village,,Co-op Food,Greenwich,London,Greater London,eng,SE10 0BG,,,,,,,,The Co-operative Group,,,The Co-operative Group,,,,,,,,,,,,,,,,
,,tb,,Greenwood Avenue - Hull,,Co-op Food,Greenwood Avenue,Hull,East Riding of Yorkshire,eng,HU6 9NA,,,,,,,,The Co-operative Group,,,The Co-operative Group,,,,,,,,,,,,,,,,
,,tb,,Grimsby Laceby,,Co-op Food,462 Laceby Road,Grimsby,Lincolnshire,eng,DN34 5NB,,,,,,,,The Co-operative Group,,,The Co-operative Group,,,,,,,,,,,,,,,,
,,tb,,Groby - Laundon Way,,Co-op Food,Laundon Way,Leicester,Leicestershire,eng,LE6 0YG,,,,,,,,The Co-operative Group,,,The Co-operative Group,,,,,,,,,,,,,,,,
,,tb,,Guildford - Connaught House,,Co-op Food,255 High Street,Guildford,Surrey,eng,GU1 3BS,,,,,,,,The Co-operative Group,,,The Co-operative Group,,,,,,,,,,,,,,,,
,,tb,,Hackney - Cambridge Heath Road,,Co-op Food,228-232 Cambridge Heath Road,London,Greater London,eng,E2 9NN,,,,,,,,The Co-operative Group,,,The Co-operative Group,,,,,,,,,,,,,,,,
,,tb,,Hackney - Pembury Circus,,Co-op Food,Corner of Pembury Rd - Dalston Lane,London,Greater London,eng,E8 1LQ,,,,,,,,The Co-operative Group,,,The Co-operative Group,,,,,,,,,,,,,,,,
,,tb,,Hackney - Theydon Road,,Co-op Food,Theydon Road,London,Greater London,eng,E5 9BQ,,,,,,,,The Co-operative Group,,,The Co-operative Group,,,,,,,,,,,,,,,,
,,tb,,Hackney- Manor House Station,,Co-op Food,Green Lanes,London,Greater London,eng,N4 2LX,,,,,,,,The Co-operative Group,,,The Co-operative Group,,,,,,,,,,,,,,,,
,,tb,,Haddenham - Pegasus Way,,Co-op Food,Haddenham,HP17 8FH,Buckinghamshire,eng,HP17 8FH,,,,,,,,The Co-operative Group,,,The Co-operative Group,,,,,,,,,,,,,,,,
,,tb,,Hadston,,Co-op Food,Hadston Estate,Morpeth,Northumberland,eng,NE65 9YF,,,,,,,,The Co-operative Group,,,The Co-operative Group,,,,,,,,,,,,,,,,
,,tb,,Hagley Road,,Co-op Food,Hagley Road,Birmingham,West Midlands,eng,B32 2AL,,,,,,,,The Co-operative Group,,,The Co-operative Group,,,,,,,,,,,,,,,,
,,tb,,Hailsham - Upper Horsebridge Road,,Co-op Food,85 Upper Horsebridge Road,Hailsham,East Sussex,eng,BN27 1NX,,,,,,,,The Co-operative Group,,,The Co-operative Group,,,,,,,,,,,,,,,,
,,tb,,Hale Bank,,Co-op Food,447 Hale Road,Widnes,Cheshire,eng,WA8 8UU,,,,,,,,The Co-operative Group,,,The Co-operative Group,,,,,,,,,,,,,,,,
,,tb,,Halesowen - Bassnage Road,,Co-op Food,93 Bassnage Road,Halesowen,West Midlands,eng,B63 4HB,,,,,,,,The Co-operative Group,,,The Co-operative Group,,,,,,,,,,,,,,,,
,,tb,,Halesowen - Hagley Road,,Co-op Food,218 Hagley Road,Dudley,West Midlands,eng,B63 4QQ,,,,,,,,The Co-operative Group,,,The Co-operative Group,,,,,,,,,,,,,,,,
,,tb,,Ham Road,,Co-op Food,60-64a Ham Road,Worthing,West Sussex,eng,BN11 2QY,,,,,,,,The Co-operative Group,,,The Co-operative Group,,,,,,,,,,,,,,,,
,,tb,,Harlow - Newhall Neighbourhood Ctr,,Co-op Food,North Square,Harlow,Essex,eng,CM17 9TW,,,,,,,,The Co-operative Group,,,The Co-operative Group,,,,,,,,,,,,,,,,
,,tb,,Harold Wood,,Co-op Food,15 Station Road,Romford,Essex,eng,RM3 0BP,,,,,,,,The Co-operative Group,,,The Co-operative Group,,,,,,,,,,,,,,,,
,,tb,,Harrietsham - Ashford Road,,Co-op Food,1 Buckingham Drive,Maidstone,Kent,eng,ME17 1GF,,,,,,,,The Co-operative Group,,,The Co-operative Group,,,,,,,,,,,,,,,,
,,tb,,Harrogate - Knaresborough Road,,Co-op Food,Knaresborough Road,Harrogate,North Yorkshire,eng,HG2 7LU,,,,,,,,The Co-operative Group,,,The Co-operative Group,,,,,,,,,,,,,,,,
,,tb,,Haslingden,,Co-op Food,2 John Street,Rossendale,Lancashire,eng,BB4 5QB,,,,,,,,The Co-operative Group,,,The Co-operative Group,,,,,,,,,,,,,,,,
,,tb,,Hastings - Parkstone Parade,,Co-op Food,1 - 5 Parkstone Parade,Hastings,Sussex,eng,TN34 2PS,,,,,,,,The Co-operative Group,,,The Co-operative Group,,,,,,,,,,,,,,,,
,,tb,,Hatch Lane,,Co-op Food,16 Hatch Lane,London,Greater London,eng,E4 6LQ,,,,,,,,The Co-operative Group,,,The Co-operative Group,,,,,,,,,,,,,,,,
,,tb,,Haven Banks,,Co-op Food,Shooting Marsh Stile,Exeter,Devon,eng,EX2 8BP,,,,,,,,The Co-operative Group,,,The Co-operative Group,,,,,,,,,,,,,,,,
,,tb,,Haworth - Station Road,,Co-op Food,Station Road,Keighley,West Yorkshire,eng,BD22 8NF,,,,,,,,The Co-operative Group,,,The Co-operative Group,,,,,,,,,,,,,,,,
,,tb,,Heatley Mere,,Co-op Food,Unit 1,Lymm,Cheshire,eng,WA13 9UP,,,,,,,,The Co-operative Group,,,The Co-operative Group,,,,,,,,,,,,,,,,
,,tb,,Herbert Road,,Co-op Food,9-15 Herbert Road,London,Greater London,eng,SE18 3TB,,,,,,,,The Co-operative Group,,,The Co-operative Group,,,,,,,,,,,,,,,,
,,tb,,Hermitage - Newbury Road,,Co-op Food,Newbury Road,THATCHAM,Berkshire,eng,RG18 9TD,,,,,,,,The Co-operative Group,,,The Co-operative Group,,,,,,,,,,,,,,,,
,,tb,,Hertford Road,,Co-op Food,139 Hertford Road,Enfield,Greater London,eng,EN3 5JG,,,,,,,,The Co-operative Group,,,The Co-operative Group,,,,,,,,,,,,,,,,
,,tb,,Heworth,,Co-op Food,75-77 East Parade,York,North Yorkshire,eng,YO31 7YB,,,,,,,,The Co-operative Group,,,The Co-operative Group,,,,,,,,,,,,,,,,
,,tb,,Heysham,,Co-op Food,410 Heysham Road,Morecambe,Lancashire,eng,LA3 2BJ,,,,,,,,The Co-operative Group,,,The Co-operative Group,,,,,,,,,,,,,,,,
,,tb,,Hibaldstow - Redbourne Road,,Co-op Food,Redbourne Road / West Street,Hibaldstow,North Lincs,eng,DN20 9DT,,,,,,,,The Co-operative Group,,,The Co-operative Group,,,,,,,,,,,,,,,,
,,tb,,High Green,,Co-op Food,Greengate Lane,Sheffield,South Yorkshire,eng,S35 3GT,,,,,,,,The Co-operative Group,,,The Co-operative Group,,,,,,,,,,,,,,,,
,,tb,,High Park Drive,,Co-op Food,47 High Park Drive,Bradford,West Yorkshire,eng,BD9 6HX,,,,,,,,The Co-operative Group,,,The Co-operative Group,,,,,,,,,,,,,,,,
,,tb,,High Street - Lindfield,,Co-op Food,35-37 High Street,Haywards Heath,West Sussex,eng,RH16 2HJ,,,,,,,,The Co-operative Group,,,The Co-operative Group,,,,,,,,,,,,,,,,
,,tb,,Higham Hill Road,,Co-op Food,323 Higham Hill Road,London,Greater London,eng,E17 5RG,,,,,,,,The Co-operative Group,,,The Co-operative Group,,,,,,,,,,,,,,,,
,,tb,,Higham Lane,,Co-op Food,17 Martin Hardie Way,Tonbridge,Kent,eng,TN10 4AE,,,,,,,,The Co-operative Group,,,The Co-operative Group,,,,,,,,,,,,,,,,
,,tb,,Highgate - Archway Road,,Co-op Food,191 - 201 Archway Road,Highgate,London,eng,N6 5BW,,,,,,,,The Co-operative Group,,,The Co-operative Group,,,,,,,,,,,,,,,,
,,tb,,Hilton House,,Co-op Food,100 St Norbert Road,London,Greater London,eng,SE4 2BN,,,,,,,,The Co-operative Group,,,The Co-operative Group,,,,,,,,,,,,,,,,
,,tb,,Hingham - Norwich Street,,Co-op Food,25 Norwich Street,Norwich,Norfolk,eng,NR9 4LJ,,,,,,,,The Co-operative Group,,,The Co-operative Group,,,,,,,,,,,,,,,,
,,tb,,Hixon - Lea Road,,Co-op Food,Lea Road,Hixon,Staffordshire,eng,ST18 0NR,,,,,,,,The Co-operative Group,,,The Co-operative Group,,,,,,,,,,,,,,,,
,,tb,,Holcombe Brook,,Co-op Food,Longsight Road,Bury,Lancashire,eng,BL0 9SH,,,,,,,,The Co-operative Group,,,The Co-operative Group,,,,,,,,,,,,,,,,
,,tb,,Hollins Park,,Co-op Food,260 Oakwood Lane,Leeds,West Yorkshire,eng,LS8 3LE,,,,,,,,The Co-operative Group,,,The Co-operative Group,,,,,,,,,,,,,,,,
,,tb,,Hoole Road,,Co-op Food,90-94 Hoole Road,Wirral,Merseyside,eng,CH49 8EG,,,,,,,,The Co-operative Group,,,The Co-operative Group,,,,,,,,,,,,,,,,
,,tb,,Horam - High Street,,Co-op Food,High Street,Heathfield,East Sussex,eng,TN21 0EL,,,,,,,,The Co-operative Group,,,The Co-operative Group,,,,,,,,,,,,,,,,
,,tb,,Hove,,Co-op Food,67-71 Portland Road,Hove,East Sussex,eng,BN3 5DQ,,,,,,,,The Co-operative Group,,,The Co-operative Group,,,,,,,,,,,,,,,,
,,tb,,Hove - Church Road,,Co-op Food,88-92 Church Road,Hove,East Sussex,eng,BN3 2EB,,,,,,,,The Co-operative Group,,,The Co-operative Group,,,,,,,,,,,,,,,,
,,tb,,Hove - Kingsway,,Co-op Food,Kingsway,Hove,East Sussex,eng,BN3 2WY,,,,,,,,The Co-operative Group,,,The Co-operative Group,,,,,,,,,,,,,,,,
,,tb,,Howden - Hailgate,,Co-op Food,Charles Briggs Avenue,Goole,North Humberside,eng,DN14 7GQ,,,,,,,,The Co-operative Group,,,The Co-operative Group,,,,,,,,,,,,,,,,
,,tb,,Hucknall,,Co-op Food,288 Watnall Road,Nottingham,Nottinghamshire,eng,NG15 6EY,,,,,,,,The Co-operative Group,,,The Co-operative Group,,,,,,,,,,,,,,,,
,,tb,,Hucknall - Papplewick Lane,,Co-op Food,Papplewick Road,Nottingham,Nottinghamshire,eng,NG15 8GL,,,,,,,,The Co-operative Group,,,The Co-operative Group,,,,,,,,,,,,,,,,
,,tb,,Hulme - Birley Fields,,Co-op Food,Stretford Road,Manchester,Greater Manchester,eng,M15 5JH,,,,,,,,The Co-operative Group,,,The Co-operative Group,,,,,,,,,,,,,,,,
,,tb,,Hurstpierpoint,,Co-op Food,95 High Street,Hassocks,West Sussex,eng,BN6 9RE,,,,,,,,The Co-operative Group,,,The Co-operative Group,,,,,,,,,,,,,,,,
,,tb,,Huthwaite,,Co-op Food,17-25 Main Street,Sutton-in-Ashfield,Nottinghamshire,eng,NG17 2QW,,,,,,,,The Co-operative Group,,,The Co-operative Group,,,,,,,,,,,,,,,,
,,tb,,Hutton,,Co-op Food,201-205 Rayleigh Road,Brentwood,Essex,eng,CM13 1LZ,,,,,,,,The Co-operative Group,,,The Co-operative Group,,,,,,,,,,,,,,,,
,,tb,,Ickenham - 17 Swakeleys Rd,,Co-op Food,17 Swakeleys Road,Uxbridge,Greater London,eng,UB10 8DF,,,,,,,,The Co-operative Group,,,The Co-operative Group,,,,,,,,,,,,,,,,
,,tb,,Ilford - Longwood Gardens,,Co-op Food,175 Longwood Gardens,Ilford,Essex,eng,IG5 0EN,,,,,,,,The Co-operative Group,,,The Co-operative Group,,,,,,,,,,,,,,,,
,,tb,,Ilkeston,,Co-op Food,Summerfields Way South,Ilkeston,Derbyshire,eng,DE7 9JJ,,,,,,,,The Co-operative Group,,,The Co-operative Group,,,,,,,,,,,,,,,,
,,tb,,INDF Westhoughton,,Co-op Food,34-40 Market Street,Bolton,Lancashire,eng,BL5 3AN,,,,,,,,The Co-operative Group,,,The Co-operative Group,,,,,,,,,,,,,,,,
,,tb,,Ironbridge - Wharfage Road,,Co-op Food,Wharfage Road,Telford,Shropshire,eng,TF8 7NJ,,,,,,,,The Co-operative Group,,,The Co-operative Group,,,,,,,,,,,,,,,,
,,tb,,Island Road,,Co-op Food,Island Road,Barrow In Furness,Cumbria,eng,LA14 2SD,,,,,,,,The Co-operative Group,,,The Co-operative Group,,,,,,,,,,,,,,,,
,,tb,,Isle of Dogs - Cassilis Road,,Co-op Food,Cassilis Road,London,Greater London,eng,E14 9LQ,,,,,,,,The Co-operative Group,,,The Co-operative Group,,,,,,,,,,,,,,,,
,,tb,,Isle of Grain,,Co-op Food,27 High Street,Rochester,Kent,eng,ME3 0BJ,,,,,,,,The Co-operative Group,,,The Co-operative Group,,,,,,,,,,,,,,,,
,,tb,,Islington - 640-650 Holloway Road,,Co-op Food,640-650 Holloway Road,London,Greater London,eng,N19 3NU,,,,,,,,The Co-operative Group,,,The Co-operative Group,,,,,,,,,,,,,,,,
,,tb,,Iver - High Street,,Co-op Food,9 High Street,Iver,Buckinghamshire,eng,SL0 9ND,,,,,,,,The Co-operative Group,,,The Co-operative Group,,,,,,,,,,,,,,,,
,,tb,,Ivybridge,,Co-op Food,Abbots Rd,Ivybridge,Devon,eng,PL21 9TF,,,,,,,,The Co-operative Group,,,The Co-operative Group,,,,,,,,,,,,,,,,
,,tb,,Ivymeade,,Co-op Food,Ivy Road,Macclesfield,Cheshire,eng,SK11 8NA,,,,,,,,The Co-operative Group,,,The Co-operative Group,,,,,,,,,,,,,,,,
,,tb,,Jaunty Way,,Co-op Food,29-33 Jaunty Way,Sheffield,South Yorkshire,eng,S12 3DZ,,,,,,,,The Co-operative Group,,,The Co-operative Group,,,,,,,,,,,,,,,,
,,tb,,Jennyfield Drive,,Co-op Food,Jenny Field Drive,Harrogate,North Yorkshire,eng,HG3 2XS,,,,,,,,The Co-operative Group,,,The Co-operative Group,,,,,,,,,,,,,,,,
,,tb,,Keelings Road,,Co-op Food,Keelings Road,Stoke-On-Trent,Staffordshire,eng,ST1 6PA,,,,,,,,The Co-operative Group,,,The Co-operative Group,,,,,,,,,,,,,,,,
,,tb,,"Kennington, Walworth Road",,Co-op Food,156-164 Walworth Road,Kennington,London,eng,SE17 1JL,,,,,,,,The Co-operative Group,,,The Co-operative Group,,,,,,,,,,,,,,,,
,,tb,,Kensal Green - Harrow Road,,Co-op Food,765-767 Harrow Road,London,Greater London,eng,NW10 5NY,,,,,,,,The Co-operative Group,,,The Co-operative Group,,,,,,,,,,,,,,,,
,,tb,,Keyworth - Bunny Lane,,Co-op Food,The Square,Keyworth,Nottingham,eng,NG12 5JT,,,,,,,,The Co-operative Group,,,The Co-operative Group,,,,,,,,,,,,,,,,
,,tb,,Kidbrooke Park,,Co-op Food,196-200 Shooters Hill Road,London,Greater London,eng,SE3 8RP,,,,,,,,The Co-operative Group,,,The Co-operative Group,,,,,,,,,,,,,,,,
,,tb,,Kilkhampton,,Co-op Food,Off A39,Bude,Cornwall,eng,EX23 9QN,,,,,,,,The Co-operative Group,,,The Co-operative Group,,,,,,,,,,,,,,,,
,,tb,,Kingsbury,,Co-op Food,171 Church Lane,London,Greater London,eng,NW9 8JS,,,,,,,,The Co-operative Group,,,The Co-operative Group,,,,,,,,,,,,,,,,
,,tb,,Kingsley - Hollow Lane,,Co-op Food,Hollow Lane,Frodsham,Cheshire,eng,WA6 8EF,,,,,,,,The Co-operative Group,,,The Co-operative Group,,,,,,,,,,,,,,,,
,,tb,,Kingston - Kings Road,,Co-op Food,178 Kings Road,Kingston-upon-Thames,Surrey,eng,KT2 5HU,,,,,,,,The Co-operative Group,,,The Co-operative Group,,,,,,,,,,,,,,,,
,,tb,,Kingsway South,,Co-op Food,92 Kingsway South,Warrington,Cheshire,eng,WA4 1QZ,,,,,,,,The Co-operative Group,,,The Co-operative Group,,,,,,,,,,,,,,,,
,,tb,,Kirton in Lindsey - Station Road,,Co-op Food,11a Station Road,Gainsborough,Lincolnshire,eng,DN21 4BB,,,,,,,,The Co-operative Group,,,The Co-operative Group,,,,,,,,,,,,,,,,
,,tb,,Knightsfield,,Co-op Food,1-5 Shoplands Parade,Welwyn Garden City,Hertfordshire,eng,AL8 7RH,,,,,,,,The Co-operative Group,,,The Co-operative Group,,,,,,,,,,,,,,,,
,,tb,,Lake Lock Road,,Co-op Food,62-66 Lake Lock Road,Wakefield,West Yorkshire,eng,WF3 4HS,,,,,,,,The Co-operative Group,,,The Co-operative Group,,,,,,,,,,,,,,,,
,,tb,,Laughton Common,,Co-op Food,Outgang Lane & Rotherham Road,Sheffield,South Yorkshire,eng,S25 3RG,,,,,,,,The Co-operative Group,,,The Co-operative Group,,,,,,,,,,,,,,,,
,,tb,,Launceston,,Co-op Food,Newport Industrial Estate,Launceston,Cornwall,eng,PL15 8EX,,,,,,,,The Co-operative Group,,,The Co-operative Group,,,,,,,,,,,,,,,,
,,tb,,Lee - 25-31 Burnt Ash Hill,,Co-op Food,25-31 Burnt Ash Hill,London,Greater London,eng,SE12 9HT,,,,,,,,The Co-operative Group,,,The Co-operative Group,,,,,,,,,,,,,,,,
,,tb,,Leeds - Burley Street,,Co-op Food,46 Burley Street,Leeds,West Yorkshire,eng,LS3 1LB,,,,,,,,The Co-operative Group,,,The Co-operative Group,,,,,,,,,,,,,,,,
,,tb,,Leeds - Merrion Way,,Co-op Food,11 Merrion Way,Leeds,West Yorkshire,eng,LS2 8BT,,,,,,,,The Co-operative Group,,,The Co-operative Group,,,,,,,,,,,,,,,,
,,tb,,Leeds - Sovereign Square,,Co-op Food,Sovereign Street,Leeds,West Yorkshire,eng,LS1 4AG,,,,,,,,The Co-operative Group,,,The Co-operative Group,,,,,,,,,,,,,,,,
,,tb,,Leeming Bar - Leeming Lane,,Co-op Food,1A Leeming Lane,Northallerton,North Yorkshire,eng,DL7 9AT,,,,,,,,The Co-operative Group,,,The Co-operative Group,,,,,,,,,,,,,,,,
,,tb,,Leigh on Sea - Leigh Rd,,Co-op Food,84-86 Leigh Road,Leigh-On-Sea,Essex,eng,SS9 1BZ,,,,,,,,The Co-operative Group,,,The Co-operative Group,,,,,,,,,,,,,,,,
,,tb,,Lewsey Farm,,Co-op Food,8-9 St. Dominics Square,Luton,Bedfordshire,eng,LU4 0UN,,,,,,,,The Co-operative Group,,,The Co-operative Group,,,,,,,,,,,,,,,,
,,tb,,Littleham Cross,,Co-op Food,8-10 Littleham Road,Exmouth,Devon,eng,EX8 2QG,,,,,,,,The Co-operative Group,,,The Co-operative Group,,,,,,,,,,,,,,,,
,,tb,,Liverpool - Myrtle Street,,Co-op Food,2G Myrtle Street,Liverpool,Merseyside,eng,L7 7DP,,,,,,,,The Co-operative Group,,,The Co-operative Group,,,,,,,,,,,,,,,,
,,tb,,London - 17 Moorgate,,Co-op Food,17 Moorgate,London,Greater London,eng,EC2R 6AR,,,,,,,,The Co-operative Group,,,The Co-operative Group,,,,,,,,,,,,,,,,
,,tb,,London - 43 Friern Barnet Road,,Co-op Food,43 Friern Barnet Road,London,Greater London,eng,N11 1NE,,,,,,,,The Co-operative Group,,,The Co-operative Group,,,,,,,,,,,,,,,,
,,tb,,London - Balham High Road,,Co-op Food,193 Balham High Road,London,Greater London,eng,SW12 9BE,,,,,,,,The Co-operative Group,,,The Co-operative Group,,,,,,,,,,,,,,,,
,,tb,,London - Chiswick High Road,,Co-op Food,578-586 Chiswick High Road,London,Greater London,eng,W4 5RP,,,,,,,,The Co-operative Group,,,The Co-operative Group,,,,,,,,,,,,,,,,
,,tb,,London - City Road,,Co-op Food,271-273 City Road,London,Greater London,eng,EC1V 1LA,,,,,,,,The Co-operative Group,,,The Co-operative Group,,,,,,,,,,,,,,,,
,,tb,,London - Deptford Bridge,,Co-op Food,33-49 Deptford Bridge,London,Greater London,eng,SE8 4HH,,,,,,,,The Co-operative Group,,,The Co-operative Group,,,,,,,,,,,,,,,,
,,tb,,"London - Hendon Waterside, Hendon",,Co-op Food,West Hendon Broadway,London,Greater London,eng,NW9 7ED,,,,,,,,The Co-operative Group,,,The Co-operative Group,,,,,,,,,,,,,,,,
,,tb,,London - South End,,Co-op Food,40-42 South End,Croydon,Surrey,eng,CR0 1DP,,,,,,,,The Co-operative Group,,,The Co-operative Group,,,,,,,,,,,,,,,,
,,tb,,London - South Lambeth Road,,Co-op Food,173-175 South Lambeth Road,London,Greater London,eng,SW8 1XW,,,,,,,,The Co-operative Group,,,The Co-operative Group,,,,,,,,,,,,,,,,
,,tb,,London - Sumner Street,,Co-op Food,3 Sumner Street,London,Greater London,eng,SE1 9RE,,,,,,,,The Co-operative Group,,,The Co-operative Group,,,,,,,,,,,,,,,,
,,tb,,London Road - Macclesfield,,Co-op Food,155 London Road,Macclesfield,Cheshire,eng,SK11 7SP,,,,,,,,The Co-operative Group,,,The Co-operative Group,,,,,,,,,,,,,,,,
,,tb,,Longstanton - High Street,,Co-op Food,93 High Street,Cambridge,Cambridgeshire,eng,CB24 3BT,,,,,,,,The Co-operative Group,,,The Co-operative Group,,,,,,,,,,,,,,,,
,,tb,,Lostock Hall - Watkin Lane,,Co-op Food,35 Watkin Lane,Preston,Lancashire,eng,PR5 5RE,,,,,,,,The Co-operative Group,,,The Co-operative Group,,,,,,,,,,,,,,,,
,,tb,,Louth - Newmarket,,Co-op Food,155 Newmarket,Louth,Lincolnshire,eng,LN11 9EH,,,,,,,,The Co-operative Group,,,The Co-operative Group,,,,,,,,,,,,,,,,
,,tb,,Low Moorside,,Co-op Food,Low Moorside,Leeds,West Yorkshire,eng,LS12 5EA,,,,,,,,The Co-operative Group,,,The Co-operative Group,,,,,,,,,,,,,,,,
,,tb,,Lowdham,,Co-op Food,38 Main Street,Nottingham,Nottinghamshire,eng,NG14 7AG,,,,,,,,The Co-operative Group,,,The Co-operative Group,,,,,,,,,,,,,,,,
,,tb,,Lowton,,Co-op Food,237 Church Lane,Warrington,Cheshire,eng,WA3 2RZ,,,,,,,,The Co-operative Group,,,The Co-operative Group,,,,,,,,,,,,,,,,
,,tb,,LSHF Northolt,,Co-op Food,52-58 Church Road,Northolt,Middlesex,eng,UB5 5AB,,,,,,,,The Co-operative Group,,,The Co-operative Group,,,,,,,,,,,,,,,,
,,tb,,Luton - Hancock Drive,,Co-op Food,Hancock Drive,Luton,Bedfordshire,eng,LU2 7SF,,,,,,,,The Co-operative Group,,,The Co-operative Group,,,,,,,,,,,,,,,,
,,tb,,Lynemouth,,Co-op Food,West Market Street,Morpeth,Northumberland,eng,NE61 5TS,,,,,,,,The Co-operative Group,,,The Co-operative Group,,,,,,,,,,,,,,,,
,,tb,,Maidstone - Loose Road,,Co-op Food,1 Loose Road,Maidstone,Kent,eng,ME15 7BW,,,,,,,,The Co-operative Group,,,The Co-operative Group,,,,,,,,,,,,,,,,
,,tb,,Maidstone - Willington Street,,Co-op Food,427 Willington Street,Maidstone,Kent,eng,ME15 8HD,,,,,,,,The Co-operative Group,,,The Co-operative Group,,,,,,,,,,,,,,,,
,,tb,,Malmesbury,,Co-op Food,8 High Street,Malmesbury,Wiltshire,eng,SN16 9AU,,,,,,,,The Co-operative Group,,,The Co-operative Group,,,,,,,,,,,,,,,,
,,tb,,Malvern Link,,Co-op Food,162 Worcester Road,Malvern,Worcestershire,eng,WR14 1AA,,,,,,,,The Co-operative Group,,,The Co-operative Group,,,,,,,,,,,,,,,,
,,tb,,"Malvern Link - Upper Howsell
Road",,Co-op Food,67 Upper Howsell Road,Malvern,Worcestershire,eng,WR14 1TP,,,,,,,,The Co-operative Group,,,The Co-operative Group,,,,,,,,,,,,,,,,
,,tb,,Manchester - Angel Street,,Co-op Food,4 Angel Street,Manchester,Greater Manchester,eng,M4 4HT,,,,,,,,The Co-operative Group,,,The Co-operative Group,,,,,,,,,,,,,,,,
,,tb,,Manchester - High Street,,Co-op Food,38 High Street,Manchester,Greater Manchester,eng,M4 1QB,,,,,,,,The Co-operative Group,,,The Co-operative Group,,,,,,,,,,,,,,,,
,,tb,,Manchester - Oxford Road,,Co-op Food,Booth Street West,Manchester,Greater Manchester,eng,M13 9GP,,,,,,,,The Co-operative Group,,,The Co-operative Group,,,,,,,,,,,,,,,,
,,tb,,Manchester - Piccadilly,,Co-op Food,Piccadilly Approach,Manchester,Greater Manchester,eng,M1 2GH,,,,,,,,The Co-operative Group,,,The Co-operative Group,,,,,,,,,,,,,,,,
,,tb,,Manchester - Spinningfields,,Co-op Food,18-22 Bridge Street,Manchester,Greater Manchester,eng,M3 3BZ,,,,,,,,The Co-operative Group,,,The Co-operative Group,,,,,,,,,,,,,,,,
,,tb,,Manor Parade,,Co-op Food,13 Manor Parade,Worthing,West Sussex,eng,BN13 2JP,,,,,,,,The Co-operative Group,,,The Co-operative Group,,,,,,,,,,,,,,,,
,,tb,,Manor Park,,Co-op Food,40 Manor Park Centre,Sheffield,South Yorkshire,eng,S2 1WE,,,,,,,,The Co-operative Group,,,The Co-operative Group,,,,,,,,,,,,,,,,
,,tb,,Maple Road,,Co-op Food,Maple Road,Manchester,Greater Manchester,eng,M23 9HJ,,,,,,,,The Co-operative Group,,,The Co-operative Group,,,,,,,,,,,,,,,,
,,tb,,Marple - Church Street,,Co-op Food,92 - 94 Church Lane,Stockport,Cheshire,eng,SK6 7AR,,,,,,,,The Co-operative Group,,,The Co-operative Group,,,,,,,,,,,,,,,,
,,tb,,Matlock,,Co-op Food,3 Firs Parade,Matlock,Derbyshire,eng,DE4 3AS,,,,,,,,The Co-operative Group,,,The Co-operative Group,,,,,,,,,,,,,,,,
,,tb,,Melksham - Cranesbill Road,,Co-op Food,"Verbena Court, Cranesbill Road",Melksham,Wiltshire,eng,SN12 7GS,,,,,,,,The Co-operative Group,,,The Co-operative Group,,,,,,,,,,,,,,,,
,,tb,,Merstham - Portland Drive,,Co-op Food,Portland Drive,Redhill,Surrey,eng,RH1 3HU,,,,,,,,The Co-operative Group,,,The Co-operative Group,,,,,,,,,,,,,,,,
,,tb,,Middlegate,,Co-op Food,Manby Middlegate,Louth,Lincolnshire,eng,LN11 8SU,,,,,,,,The Co-operative Group,,,The Co-operative Group,,,,,,,,,,,,,,,,
,,tb,,Middlesbrough,,Co-op Food,469 Linthorpe Road,Middlesbrough,Cleveland,eng,TS5 6HX,,,,,,,,The Co-operative Group,,,The Co-operative Group,,,,,,,,,,,,,,,,
,,tb,,Millom,,Co-op Food,33-35 Lapstone Road,Millom,Cumbria,eng,LA18 4BT,,,,,,,,The Co-operative Group,,,The Co-operative Group,,,,,,,,,,,,,,,,
,,tb,,Milton Keynes - Dunthorne Way,,Co-op Food,"130 Dunthorne Way, New Hill Place",Milton Keynes,Buckinghamshire,eng,MK8 0LW,,,,,,,,The Co-operative Group,,,The Co-operative Group,,,,,,,,,,,,,,,,
,,tb,,Milton Keynes - Kingsmead South,,Co-op Food,King Street,Milton Keynes,Buckinghamshire,eng,MK4 4AS,,,,,,,,The Co-operative Group,,,The Co-operative Group,,,,,,,,,,,,,,,,
,,tb,,Milton Keynes - Monkston Park,,Co-op Food,Plaistow Crescent,Milton Keynes,Buckinghamshire,eng,MK10 9PN,,,,,,,,The Co-operative Group,,,The Co-operative Group,,,,,,,,,,,,,,,,
,,tb,,Minster - Aspen Drive,,Co-op Food,Aspen Drive,Sheerness,Kent,eng,ME12 3UD,,,,,,,,The Co-operative Group,,,The Co-operative Group,,,,,,,,,,,,,,,,
,,tb,,Mirfield,,Co-op Food,Huddersfield Road,Mirfield,West Yorkshire,eng,WF14 8AN,,,,,,,,The Co-operative Group,,,The Co-operative Group,,,,,,,,,,,,,,,,
,,tb,,Moira - Shortheath Road,,Co-op Food,Shortheath Road,Swadlincote,Derbyshire,eng,DE12 6AL,,,,,,,,The Co-operative Group,,,The Co-operative Group,,,,,,,,,,,,,,,,
,,tb,,Monkton Heathfield - School Road,,Co-op Food,School Road,Taunton,Somerset,eng,TA2 8PB,,,,,,,,The Co-operative Group,,,The Co-operative Group,,,,,,,,,,,,,,,,
,,tb,,Moor Road,,Co-op Food,152 Moor Road,Chorley,Lancashire,eng,PR7 2LU,,,,,,,,The Co-operative Group,,,The Co-operative Group,,,,,,,,,,,,,,,,
,,tb,,Moorside Oldham,,Co-op Food,Ripponden Road,Oldham,Lancashire,eng,OL4 2LN,,,,,,,,The Co-operative Group,,,The Co-operative Group,,,,,,,,,,,,,,,,
,,tb,,Moortown,,Co-op Food,399 Harrogate Road,Leeds,West Yorkshire,eng,LS17 6DJ,,,,,,,,The Co-operative Group,,,The Co-operative Group,,,,,,,,,,,,,,,,
,,tb,,Morecambe,,Co-op Food,22 Glentworth Road West,Morecambe,Lancashire,eng,LA4 4SZ,,,,,,,,The Co-operative Group,,,The Co-operative Group,,,,,,,,,,,,,,,,
,,tb,,Morley Road,,Co-op Food,Morley Road,Burntwood,Staffordshire,eng,WS7 9AZ,,,,,,,,The Co-operative Group,,,The Co-operative Group,,,,,,,,,,,,,,,,
,,tb,,Morpeth - Loansdean,,Co-op Food,A197,Morpeth,Northumberland,eng,NE61 2DR,,,,,,,,The Co-operative Group,,,The Co-operative Group,,,,,,,,,,,,,,,,
,,tb,,Mortimer Road - South Shields,,Co-op Food,Mortimer Road,South Shields,Tyne and Wear,eng,NE34 0RU,,,,,,,,The Co-operative Group,,,The Co-operative Group,,,,,,,,,,,,,,,,
,,tb,,Morton,,Co-op Food,Stonegarth Road,Carlisle,Cumbria,eng,CA2 6PD,,,,,,,,The Co-operative Group,,,The Co-operative Group,,,,,,,,,,,,,,,,
,,tb,,Moseley,,Co-op Food,154-158 Alcester Road,Birmingham,West Midlands,eng,B13 8HS,,,,,,,,The Co-operative Group,,,The Co-operative Group,,,,,,,,,,,,,,,,
,,tb,,Mowden,,Co-op Food,102-106 Fulthorpe Avenue,Darlington,County Durham,eng,DL3 9XT,,,,,,,,The Co-operative Group,,,The Co-operative Group,,,,,,,,,,,,,,,,
,,tb,,Murdishaw,,Co-op Food,The Ridgeway,Runcorn,Cheshire,eng,WA7 6ER,,,,,,,,The Co-operative Group,,,The Co-operative Group,,,,,,,,,,,,,,,,
,,tb,,Nab Lane,,Co-op Food,Nab Lane,Mirfield,West Yorkshire,eng,WF14 9BN,,,,,,,,The Co-operative Group,,,The Co-operative Group,,,,,,,,,,,,,,,,
,,tb,,New Kings Road - Fulham,,Co-op Food,100 New Kings Road,London,Greater London,eng,SW6 4LX,,,,,,,,The Co-operative Group,,,The Co-operative Group,,,,,,,,,,,,,,,,
,,tb,,New Street - Chelmsford,,Co-op Food,"Corner of Marconi Street and
New St",Chelmsford,Essex,eng,CM1 1PP,,,,,,,,The Co-operative Group,,,The Co-operative Group,,,,,,,,,,,,,,,,
,,tb,,New Upton,,Co-op Food,Waggon Lane,Pontefract,West Yorkshire,eng,WF9 1JT,,,,,,,,The Co-operative Group,,,The Co-operative Group,,,,,,,,,,,,,,,,
,,tb,,Newbold,,Co-op Food,19 Main Street,Rugby,Warwickshire,eng,CV21 1HH,,,,,,,,The Co-operative Group,,,The Co-operative Group,,,,,,,,,,,,,,,,
,,tb,,Newbold Village - Chesterfield,,Co-op Food,74 Newbold Village,Chesterfield,Derbyshire,eng,S41 8RJ,,,,,,,,The Co-operative Group,,,The Co-operative Group,,,,,,,,,,,,,,,,
,,tb,,Newlands Park,,Co-op Food,42-46 Newlands Park,Scarborough,North Yorkshire,eng,YO12 6DJ,,,,,,,,The Co-operative Group,,,The Co-operative Group,,,,,,,,,,,,,,,,
,,tb,,Newlyn,,Co-op Food,18 The Strand,Penzance,Cornwall,eng,TR18 5HN,,,,,,,,The Co-operative Group,,,The Co-operative Group,,,,,,,,,,,,,,,,
,,tb,,Newport Pagnell - High Street,,Co-op Food,62 High Street,Newport Pagnell,Milton Keynes,eng,MK16 8AQ,,,,,,,,The Co-operative Group,,,The Co-operative Group,,,,,,,,,,,,,,,,
,,tb,,Norbury - London Road,,Co-op Food,1485-1489 London Road,London,Greater London,eng,SW16 4AE,,,,,,,,The Co-operative Group,,,The Co-operative Group,,,,,,,,,,,,,,,,
,,tb,,North Somercotes - Conisholme Road,,Co-op Food,Conisholme Road,Louth,Lincolnshire,eng,LN11 7PR,,,,,,,,The Co-operative Group,,,The Co-operative Group,,,,,,,,,,,,,,,,
,,tb,,Northampton - Olden Road,,Co-op Food,Olden Road,Northampton,Northamptonshire,eng,NN3 5DD,,,,,,,,The Co-operative Group,,,The Co-operative Group,,,,,,,,,,,,,,,,
,,tb,,Northenden Road,,Co-op Food,4-6 Northenden Road,Sale,Cheshire,eng,M33 3BR,,,,,,,,The Co-operative Group,,,The Co-operative Group,,,,,,,,,,,,,,,,
,,tb,,Northern Avenue,,Co-op Food,137 Northern Avenue,Sheffield,South Yorkshire,eng,S2 2EJ,,,,,,,,The Co-operative Group,,,The Co-operative Group,,,,,,,,,,,,,,,,
,,tb,,Northern Way,,Co-op Food,Unit 5 Neighboroughood Centre,Wellingborough,Northamptonshire,eng,NN8 4UF,,,,,,,,The Co-operative Group,,,The Co-operative Group,,,,,,,,,,,,,,,,
,,tb,,Northfleet,,Co-op Food,14-18 Perry Street,Gravesend,Kent,eng,DA11 8QU,,,,,,,,The Co-operative Group,,,The Co-operative Group,,,,,,,,,,,,,,,,
,,tb,,Northolt,,Co-op Food,52-58 Church Road,Northolt,Greater London,eng,UB5 5AB,,,,,,,,The Co-operative Group,,,The Co-operative Group,,,,,,,,,,,,,,,,
,,tb,,Northwich - Cheshire Avenue,,Co-op Food,Cheshire Avenue,Northwich,Cheshire,eng,CW9 7UA,,,,,,,,The Co-operative Group,,,The Co-operative Group,,,,,,,,,,,,,,,,
,,tb,,Nottingham - Kimberley -Maws Lane,,Co-op Food,Maws Lane,Nottingham,Nottinghamshire,eng,NG16 2JE,,,,,,,,The Co-operative Group,,,The Co-operative Group,,,,,,,,,,,,,,,,
,,tb,,Nottingham - University Boulevard,,Co-op Food,215 University Boulevard,Nottingham,Nottinghamshire,eng,NG9 2GJ,,,,,,,,The Co-operative Group,,,The Co-operative Group,,,,,,,,,,,,,,,,
,,tb,,Nuneaton,,Co-op Food,Cambourne Drive,Nuneaton,Warwickshire,eng,CV11 6GU,,,,,,,,The Co-operative Group,,,The Co-operative Group,,,,,,,,,,,,,,,,
,,tb,,Nunhead - Evelina Road,,Co-op Food,88-96 Evelina Road,London,Greater London,eng,SE15 3HL,,,,,,,,The Co-operative Group,,,The Co-operative Group,,,,,,,,,,,,,,,,
,,tb,,Oakdale - Oakdale Road,,Co-op Food,74 Oakdale Road,Poole,Dorset,eng,BH15 3LG,,,,,,,,The Co-operative Group,,,The Co-operative Group,,,,,,,,,,,,,,,,
,,tb,,Oakley - Oakley Lane,,Co-op Food,32 Oakley Lane,Basingstoke,Hampshire,eng,RG23 7JY,,,,,,,,The Co-operative Group,,,The Co-operative Group,,,,,,,,,,,,,,,,
,,tb,,Offerton,,Co-op Food,4 Fulmar Drive,Stockport,Cheshire,eng,SK2 5JL,,,,,,,,The Co-operative Group,,,The Co-operative Group,,,,,,,,,,,,,,,,
,,tb,,Old Street,,Co-op Food,185 Old Street,London,Greater London,eng,EC1V 9NP,,,,,,,,The Co-operative Group,,,The Co-operative Group,,,,,,,,,,,,,,,,
,,tb,,Old Windsor,,Co-op Food,36 St Lukes Road,Windsor,Berkshire,eng,SL4 2QQ,,,,,,,,The Co-operative Group,,,The Co-operative Group,,,,,,,,,,,,,,,,
,,tb,,Orpington,,Co-op Food,2-3 Crescent Way,Orpington,Kent,eng,BR6 9LP,,,,,,,,The Co-operative Group,,,The Co-operative Group,,,,,,,,,,,,,,,,
,,tb,,Oughtibridge - Langsett Road,,Co-op Food,145 - 149 Langsett Road South,Sheffield,South Yorkshire,eng,S35 0GY,,,,,,,,The Co-operative Group,,,The Co-operative Group,,,,,,,,,,,,,,,,
,,tb,,Outwood,,Co-op Food,Meadow Vale,Wakefield,West Yorkshire,eng,WF1 3TR,,,,,,,,The Co-operative Group,,,The Co-operative Group,,,,,,,,,,,,,,,,
,,tb,,Overpool Road,,Co-op Food,14a Overpool Road,Ellesmere Port,Cheshire,eng,CH66 1JN,,,,,,,,The Co-operative Group,,,The Co-operative Group,,,,,,,,,,,,,,,,
,,tb,,Paignton - Hookhills Road,,Co-op Food,Hookhills Road,Paignton,Devon,eng,TQ4 7LY,,,,,,,,The Co-operative Group,,,The Co-operative Group,,,,,,,,,,,,,,,,
,,tb,,Pannal - Station Road,,Co-op Food,Station Road,Harrogate,North Yorkshire,eng,HG3 1JN,,,,,,,,The Co-operative Group,,,The Co-operative Group,,,,,,,,,,,,,,,,
,,tb,,Par - Par Green,,Co-op Food,107 Par Green,Par,Cornwall,eng,PL24 2AG,,,,,,,,The Co-operative Group,,,The Co-operative Group,,,,,,,,,,,,,,,,
,,tb,,Park Gate,,Co-op Food,Bridge Road,Southampton,Hampshire,eng,SO31 7GE,,,,,,,,The Co-operative Group,,,The Co-operative Group,,,,,,,,,,,,,,,,
,,tb,,Penketh - Warrington Road,,Co-op Food,176-178 Warrington Road,Warrington,Cheshire,eng,WA5 2LZ,,,,,,,,The Co-operative Group,,,The Co-operative Group,,,,,,,,,,,,,,,,
,,tb,,Peterborough - Oundle Road,,Co-op Food,490 Oundle Road,Peterborough,Cambridgeshire,eng,PE2 7DF,,,,,,,,The Co-operative Group,,,The Co-operative Group,,,,,,,,,,,,,,,,
,,tb,,Peterborough - Thorpe Road,,Co-op Food,Thorpe Road,Peterbrough,Cambridgeshire,eng,PE3 6AP,,,,,,,,The Co-operative Group,,,The Co-operative Group,,,,,,,,,,,,,,,,
,,tb,,Petrol Amesbury - Mid Summer Place,,Co-op Food,Mid Summer Place,Salisbury,Wiltshire,eng,SP4 7SQ,,,,,,,,The Co-operative Group,,,The Co-operative Group,,,,,,,,,,,,,,,,
,,tb,,Petrol Aperfield,,Co-op Food,141 Main Road,Westerham,Kent,eng,TN16 3DX,,,,,,,,The Co-operative Group,,,The Co-operative Group,,,,,,,,,,,,,,,,
,,tb,,Petrol Aston,,Co-op Food,Worksop Road,Sheffield,South Yorkshire,eng,S26 2EA,,,,,,,,The Co-operative Group,,,The Co-operative Group,,,,,,,,,,,,,,,,
,,tb,,Petrol Basingstoke,,Co-op Food,Grove Road,Basingstoke,Hampshire,eng,RG21 3AX,,,,,,,,The Co-operative Group,,,The Co-operative Group,,,,,,,,,,,,,,,,
,,tb,,Petrol Botley,,Co-op Food,Grange Road,Southampton,Hampshire,eng,SO30 2FU,,,,,,,,The Co-operative Group,,,The Co-operative Group,,,,,,,,,,,,,,,,
,,tb,,Petrol Bovey Tracey,,Co-op Food,Newton Road,Newton Abbot,Devon,eng,TQ13 9DX,,,,,,,,The Co-operative Group,,,The Co-operative Group,,,,,,,,,,,,,,,,
,,tb,,Petrol Bradfield Road,,Co-op Food,Bradfield Road,Crewe,Cheshire,eng,CW1 3RD,,,,,,,,The Co-operative Group,,,The Co-operative Group,,,,,,,,,,,,,,,,
,,tb,,Petrol Burwell - Ness Road,,Co-op Food,Ness Road,Cambridge,Cambridgeshire,eng,CB25 0AA,,,,,,,,The Co-operative Group,,,The Co-operative Group,,,,,,,,,,,,,,,,
,,tb,,Petrol Caledonian,,Co-op Food,219-227 Caledonian Road,London,Greater London,eng,N1 0SL,,,,,,,,The Co-operative Group,,,The Co-operative Group,,,,,,,,,,,,,,,,
,,tb,,Petrol Cirencester,,Co-op Food,Burford Road,Cirencester,Gloucestershire,eng,GL7 5DS,,,,,,,,The Co-operative Group,,,The Co-operative Group,,,,,,,,,,,,,,,,
,,tb,,Petrol City Way,,Co-op Food,342 City Way,Rochester,Kent,eng,ME1 2BJ,,,,,,,,The Co-operative Group,,,The Co-operative Group,,,,,,,,,,,,,,,,
,,tb,,Petrol Clitheroe,,Co-op Food,Holm Road,"Barrow, Clitheroe",Lancashire,eng,BB7 9WF,,,,,,,,The Co-operative Group,,,The Co-operative Group,,,,,,,,,,,,,,,,
,,tb,,Petrol Colne Valley,,Co-op Food,819 Manchester Road,Huddersfield,West Yorkshire,eng,HD4 5SX,,,,,,,,The Co-operative Group,,,The Co-operative Group,,,,,,,,,,,,,,,,
,,tb,,Petrol Cramlington,,Co-op Food,Moorfarm Roundabout,Cramlington,Northumberland,eng,NE23 7QA,,,,,,,,The Co-operative Group,,,The Co-operative Group,,,,,,,,,,,,,,,,
,,tb,,Petrol Cross Hillocks,,Co-op Food,Manchester Road,Manchester,Greater Manchester,eng,M29 7BQ,,,,,,,,The Co-operative Group,,,The Co-operative Group,,,,,,,,,,,,,,,,
,,tb,,Petrol Cupid Green,,Co-op Food,Redbourn Road,Hemel Hempstead,Hertfordshire,eng,HP2 7BA,,,,,,,,The Co-operative Group,,,The Co-operative Group,,,,,,,,,,,,,,,,
,,tb,,Petrol Dearnside,,Co-op Food,The Cross,Barnsley,South Yorkshire,eng,S75 4LX,,,,,,,,The Co-operative Group,,,The Co-operative Group,,,,,,,,,,,,,,,,
,,tb,,Petrol Duffield Road,,Co-op Food,27 Duffield Road,Derby,Derbyshire,eng,DE1 3BH,,,,,,,,The Co-operative Group,,,The Co-operative Group,,,,,,,,,,,,,,,,
,,tb,,Petrol Evesham,,Co-op Food,A46 Evesham Bypass,Evesham,Worcestershire,eng,WR11 4TP,,,,,,,,The Co-operative Group,,,The Co-operative Group,,,,,,,,,,,,,,,,
,,tb,,Petrol Gomersal,,Co-op Food,Oxford Road,Cleckheaton,West Yorkshire,eng,BD19 4PY,,,,,,,,The Co-operative Group,,,The Co-operative Group,,,,,,,,,,,,,,,,
,,tb,,Petrol Gosforth Park,,Co-op Food,Rotary Way,Newcastle Upon Tyne,Tyne and Wear,eng,NE3 5EH,,,,,,,,The Co-operative Group,,,The Co-operative Group,,,,,,,,,,,,,,,,
,,tb,,Petrol Handbridge - Queen’s Park Rd,,Co-op Food,Queen’s Park Road,Chester,Cheshire,eng,CH4 7JF,,,,,,,,The Co-operative Group,,,The Co-operative Group,,,,,,,,,,,,,,,,
,,tb,,Petrol Harborne,,Co-op Food,261-263 High Street,Birmingham,West Midlands,eng,B17 9QG,,,,,,,,The Co-operative Group,,,The Co-operative Group,,,,,,,,,,,,,,,,
,,tb,,Petrol Holmes Chapel,,Co-op Food,Middlewich Road,Crewe,Cheshire,eng,CW4 7ES,,,,,,,,The Co-operative Group,,,The Co-operative Group,,,,,,,,,,,,,,,,
,,tb,,Petrol Honley,,Co-op Food,Huddersfield Road,Holmfirth,West Yorkshire,eng,HD9 6LT,,,,,,,,The Co-operative Group,,,The Co-operative Group,,,,,,,,,,,,,,,,
,,tb,,Petrol Hornchurch,,Co-op Food,Billet Lane,Hornchurch,Essex,eng,RM11 1XA,,,,,,,,The Co-operative Group,,,The Co-operative Group,,,,,,,,,,,,,,,,
,,tb,,Petrol Horsham,,Co-op Food,Worthing Road,Horsham,West Sussex,eng,RH13 8LW,,,,,,,,The Co-operative Group,,,The Co-operative Group,,,,,,,,,,,,,,,,
,,tb,,Petrol Ilkeston - Heanor Road,,Co-op Food,242 Heanor Road,Ilkeston,Derbyshire,eng,DE7 8TG,,,,,,,,The Co-operative Group,,,The Co-operative Group,,,,,,,,,,,,,,,,
,,tb,,Petrol Lansdowne,,Co-op Food,157 Holdenhurst Road,Bournemouth,Dorset,eng,BH8 8DQ,,,,,,,,The Co-operative Group,,,The Co-operative Group,,,,,,,,,,,,,,,,
,,tb,,Petrol Launceston - Western Road,,Co-op Food,Wobern Garage,Launceston,Cornwall,eng,PL15 7AU,,,,,,,,The Co-operative Group,,,The Co-operative Group,,,,,,,,,,,,,,,,
,,tb,,Petrol Lees Corner,,Co-op Food,Uxbridge Road,Uxbridge,Greater London,eng,UB10 0NZ,,,,,,,,The Co-operative Group,,,The Co-operative Group,,,,,,,,,,,,,,,,
,,tb,,Petrol Lilliput,,Co-op Food,291 Sandbanks Road,Poole,Dorset,eng,BH14 8EZ,,,,,,,,The Co-operative Group,,,The Co-operative Group,,,,,,,,,,,,,,,,
,,tb,,Petrol Locking - Locking Moor Road,,Co-op Food,Locking Moor Road,Weston-Super-Mare,Somerset,eng,BS24 8EL,,,,,,,,The Co-operative Group,,,The Co-operative Group,,,,,,,,,,,,,,,,
,,tb,,Petrol Lutterworth,,Co-op Food,77 Lutterworth Road,Blaby,Leicestershire,eng,LE8 4DX,,,,,,,,The Co-operative Group,,,The Co-operative Group,,,,,,,,,,,,,,,,
,,tb,,Petrol Maidenhead,,Co-op Food,143 Bridge Road,Maidenhead,Berkshire,eng,SL6 8NH,,,,,,,,The Co-operative Group,,,The Co-operative Group,,,,,,,,,,,,,,,,
,,tb,,Petrol Malborough,,Co-op Food,Salcombe Road Garage,Kingsbridge,Devon,eng,TQ7 3BU,,,,,,,,The Co-operative Group,,,The Co-operative Group,,,,,,,,,,,,,,,,
,,tb,,Petrol Mapperley,,Co-op Food,705 Woodborough Road,Nottingham,Nottinghamshire,eng,NG3 5QG,,,,,,,,The Co-operative Group,,,The Co-operative Group,,,,,,,,,,,,,,,,
,,tb,,Petrol Marksbury,,Co-op Food,Westway Garages,Bath,Avon,eng,BA2 9HN,,,,,,,,The Co-operative Group,,,The Co-operative Group,,,,,,,,,,,,,,,,
,,tb,,Petrol Marple,,Co-op Food,151 Stockport Road,Stockport,Cheshire,eng,SK6 6DQ,,,,,,,,The Co-operative Group,,,The Co-operative Group,,,,,,,,,,,,,,,,
,,tb,,Petrol Millbrook,,Co-op Food,Millbrook Road,Southampton,Hampshire,eng,SO15 0JU,,,,,,,,The Co-operative Group,,,The Co-operative Group,,,,,,,,,,,,,,,,
,,tb,,Petrol Minsterley,,Co-op Food,Station Road,Shrewsbury,Shropshire,eng,SY5 0BE,,,,,,,,The Co-operative Group,,,The Co-operative Group,,,,,,,,,,,,,,,,
,,tb,,Petrol Mytholmroyd,,Co-op Food,Burnley Road,Hebden Bridge,West Yorkshire,eng,HX7 5DE,,,,,,,,The Co-operative Group,,,The Co-operative Group,,,,,,,,,,,,,,,,
,,tb,,Petrol Nelson Road,,Co-op Food,"The Boulevard, Nelson Road",Worthing,West Sussex,eng,BN13 1JY,,,,,,,,The Co-operative Group,,,The Co-operative Group,,,,,,,,,,,,,,,,
,,tb,,Petrol Oak Road - Fareham,,Co-op Food,165 Highlands Road,Fareham,Hampshire,eng,PO15 5PR,,,,,,,,The Co-operative Group,,,The Co-operative Group,,,,,,,,,,,,,,,,
,,tb,,Petrol Pangbourne,,Co-op Food,329 Reading Road,Reading,Berkshire,eng,RG8 7JE,,,,,,,,The Co-operative Group,,,The Co-operative Group,,,,,,,,,,,,,,,,
,,tb,,Petrol Polegate - Hailsham Road,,Co-op Food,Hailsham Road,Polegate,East Sussex,eng,BN26 6QL,,,,,,,,The Co-operative Group,,,The Co-operative Group,,,,,,,,,,,,,,,,
,,tb,,Petrol Pounds Hill,,Co-op Food,Balcombe Road,Crawley,West Sussex,eng,RH10 7RU,,,,,,,,The Co-operative Group,,,The Co-operative Group,,,,,,,,,,,,,,,,
,,tb,,Petrol Princess Parkway,,Co-op Food,849 Princess Road,Manchester,Greater Manchester,eng,M20 2ZF,,,,,,,,The Co-operative Group,,,The Co-operative Group,,,,,,,,,,,,,,,,
,,tb,,Petrol Prudhoe,,Co-op Food,Front Street,Prudhoe,Northumberland,eng,NE42 5DH,,,,,,,,The Co-operative Group,,,The Co-operative Group,,,,,,,,,,,,,,,,
,,tb,,Petrol Retford - North Road,,Co-op Food,North Road,Retford,Nottinghamshire,eng,DN22 7XQ,,,,,,,,The Co-operative Group,,,The Co-operative Group,,,,,,,,,,,,,,,,
,,tb,,Petrol Rochester,,Co-op Food,Anthonys Way,Rochester,Kent,eng,ME2 4DW,,,,,,,,The Co-operative Group,,,The Co-operative Group,,,,,,,,,,,,,,,,
,,tb,,Petrol Sandford,,Co-op Food,Main Road,Wareham,Dorset,eng,BH20 7AQ,,,,,,,,The Co-operative Group,,,The Co-operative Group,,,,,,,,,,,,,,,,
,,tb,,Petrol Saxon Cross,,Co-op Food,Congleton Road,Sandbach,Cheshire,eng,CW11 4SP,,,,,,,,The Co-operative Group,,,The Co-operative Group,,,,,,,,,,,,,,,,
,,tb,,Petrol Sherborne Road,,Co-op Food,Sherborne Road,Yeovil,Somerset,eng,BA21 5BQ,,,,,,,,The Co-operative Group,,,The Co-operative Group,,,,,,,,,,,,,,,,
,,tb,,Petrol Shirehampton - High Street,,Co-op Food,High Street,Bristol,Avon,eng,BS11 0DE,,,,,,,,The Co-operative Group,,,The Co-operative Group,,,,,,,,,,,,,,,,
,,tb,,Petrol Swanley,,Co-op Food,73-75 High Street,Swanley,Kent,eng,BR8 8AF,,,,,,,,The Co-operative Group,,,The Co-operative Group,,,,,,,,,,,,,,,,
,,tb,,Petrol Three Peaks,,Co-op Food,New Road,Carnforth,Lancashire,eng,LA6 3DL,,,,,,,,The Co-operative Group,,,The Co-operative Group,,,,,,,,,,,,,,,,
,,tb,,Petrol Washington - Parsons Road,,Co-op Food,Parsons Road,Washington,County Durham,eng,NE37 1EZ,,,,,,,,The Co-operative Group,,,The Co-operative Group,,,,,,,,,,,,,,,,
,,tb,,Petrol Westway,,Co-op Food,Castle Lane West,Bournemouth,Dorset,eng,BH9 3JZ,,,,,,,,The Co-operative Group,,,The Co-operative Group,,,,,,,,,,,,,,,,
,,tb,,Petrol Whitefriars,,Co-op Food,9 Church Street,Settle,North Yorkshire,eng,BD24 9JD,,,,,,,,The Co-operative Group,,,The Co-operative Group,,,,,,,,,,,,,,,,
,,tb,,Pickford Lane,,Co-op Food,4-12 Pickford Lane,Bexleyheath,Kent,eng,DA7 4QW,,,,,,,,The Co-operative Group,,,The Co-operative Group,,,,,,,,,,,,,,,,
,,tb,,Pickup Street,,Co-op Food,19-21 Pickup Street,Accrington,Lancashire,eng,BB5 5NS,,,,,,,,The Co-operative Group,,,The Co-operative Group,,,,,,,,,,,,,,,,
,,tb,,Pilton - St Mary’s Lane,,Co-op Food,St Mary’s Lane,Shepton Mallet,Somerset,eng,BA4 4BB,,,,,,,,The Co-operative Group,,,The Co-operative Group,,,,,,,,,,,,,,,,
,,tb,,Plaza Parade - Worthing,,Co-op Food,Plaza Parade,Worthing,West Sussex,eng,BN11 3JG,,,,,,,,The Co-operative Group,,,The Co-operative Group,,,,,,,,,,,,,,,,
,,tb,,Plymouth - Frogmore Avenue,,Co-op Food,Frogmore Avenue,Plymouth,Devon,eng,PL6 5XH,,,,,,,,The Co-operative Group,,,The Co-operative Group,,,,,,,,,,,,,,,,
,,tb,,Ponteland,,Co-op Food,15 Broadway,"Newcastle Upon
Tyne",Northumberland,eng,NE20 9PW,,,,,,,,The Co-operative Group,,,The Co-operative Group,,,,,,,,,,,,,,,,
,,tb,,Poole - Ashley Cross,,Co-op Food,Commercial Road,Poole,Dorset,eng,BH14 0JD,,,,,,,,The Co-operative Group,,,The Co-operative Group,,,,,,,,,,,,,,,,
,,tb,,Poole - Ashley Road,,Co-op Food,Ashley Road,Poole,Dorset,eng,BH14 0AW,,,,,,,,The Co-operative Group,,,The Co-operative Group,,,,,,,,,,,,,,,,
,,tb,,Portslade - Mile Oak Road,,Co-op Food,Mile Oak Road,Brighton,East Sussex,eng,BN41 2RB,,,,,,,,The Co-operative Group,,,The Co-operative Group,,,,,,,,,,,,,,,,
,,tb,,Preesall - Sandy Lane,,Co-op Food,Sandy Lane,Poulton-le-Fylde,Lancashire,eng,FY6 0EJ,,,,,,,,The Co-operative Group,,,The Co-operative Group,,,,,,,,,,,,,,,,
,,tb,,Preston - Garstang Road,,Co-op Food,166 Garstang Road,Preston,Lancashire,eng,PR2 8NB,,,,,,,,The Co-operative Group,,,The Co-operative Group,,,,,,,,,,,,,,,,
,,tb,,Princess Drive,,Co-op Food,143 Princess Drive,Grantham,Lincolnshire,eng,NG31 9QN,,,,,,,,The Co-operative Group,,,The Co-operative Group,,,,,,,,,,,,,,,,
,,tb,,Princess Drive - Seaford,,Co-op Food,123 Princess Drive,Seaford,East Sussex,eng,BN25 2TZ,,,,,,,,The Co-operative Group,,,The Co-operative Group,,,,,,,,,,,,,,,,
,,tb,,Priorslee,,Co-op Food,Priorslee Hall Farm,Telford,Shropshire,eng,TF2 9NR,,,,,,,,The Co-operative Group,,,The Co-operative Group,,,,,,,,,,,,,,,,
,,tb,,Priorswood Place,,Co-op Food,6-8 Priorswood Place,Taunton,Somerset,eng,TA2 7JW,,,,,,,,The Co-operative Group,,,The Co-operative Group,,,,,,,,,,,,,,,,
,,tb,,Pyrford,,Co-op Food,1 Marshal Parade,Woking,Surrey,eng,GU22 8SW,,,,,,,,The Co-operative Group,,,The Co-operative Group,,,,,,,,,,,,,,,,
,,tb,,Queens Park - Salusbury Road,,Co-op Food,105-109 Salusbury Road,London,Greater London,eng,NW6 6RG,,,,,,,,The Co-operative Group,,,The Co-operative Group,,,,,,,,,,,,,,,,
,,tb,,Queens Square - Penzance,,Co-op Food,6 Queens Square,Penzance,Cornwall,eng,TR18 2JJ,,,,,,,,The Co-operative Group,,,The Co-operative Group,,,,,,,,,,,,,,,,
,,tb,,Ramsgate,,Co-op Food,Grange Road,Ramsgate,Kent,eng,CT11 9NA,,,,,,,,The Co-operative Group,,,The Co-operative Group,,,,,,,,,,,,,,,,
,,tb,,Rawmarsh,,Co-op Food,115 Claypitt Lane,Rotherham,South Yorkshire,eng,S62 5DY,,,,,,,,The Co-operative Group,,,The Co-operative Group,,,,,,,,,,,,,,,,
,,tb,,Red House - Perranporth,,Co-op Food,1 Boscawen Road,Perranporth,Cornwall,eng,TR6 0EW,,,,,,,,The Co-operative Group,,,The Co-operative Group,,,,,,,,,,,,,,,,
,,tb,,Redditch - Evesham Road,,Co-op Food,524 Evesham Road,Redditch,Worcestershire,eng,B97 5JN,,,,,,,,The Co-operative Group,,,The Co-operative Group,,,,,,,,,,,,,,,,
,,tb,,Redhill Road,,Co-op Food,63 Redhill Road,Stockton-On-Tees,Cleveland,eng,TS19 9BX,,,,,,,,The Co-operative Group,,,The Co-operative Group,,,,,,,,,,,,,,,,
,,tb,,Ridgeway,,Co-op Food,The Ridgeway,Plymouth,Devon,eng,PL7 2AW,,,,,,,,The Co-operative Group,,,The Co-operative Group,,,,,,,,,,,,,,,,
,,tb,,Romford - Main Road,,Co-op Food,97-101 Main Road,Romford,Essex,eng,RM2 5EL,,,,,,,,The Co-operative Group,,,The Co-operative Group,,,,,,,,,,,,,,,,
,,tb,,Romford - South Street,,Co-op Food,112-116 South Street,Romford,Essex,eng,RM1 1SS,,,,,,,,The Co-operative Group,,,The Co-operative Group,,,,,,,,,,,,,,,,
,,tb,,Rooley Moor Road,,Co-op Food,249-251 Rooley Moor Road,Rochdale,Lancashire,eng,OL12 7EA,,,,,,,,The Co-operative Group,,,The Co-operative Group,,,,,,,,,,,,,,,,
,,tb,,Rosudgeon - Main Road,,Co-op Food,Main Road,Penzance,Cornwall,eng,TR20 9QE,,,,,,,,The Co-operative Group,,,The Co-operative Group,,,,,,,,,,,,,,,,
,,tb,,Rotherhithe Street - London,,Co-op Food,346 Rotherhithe Street,London,Greater London,eng,SE16 5EF,,,,,,,,The Co-operative Group,,,The Co-operative Group,,,,,,,,,,,,,,,,
,,tb,,Royal Albert Wharf-Gallions Quarter,,Co-op Food,"Armada South, Gallions Quarter",London,Greater London,eng,E6 7AB,,,,,,,,The Co-operative Group,,,The Co-operative Group,,,,,,,,,,,,,,,,
,,tb,,Rugby - Clifton Road,,Co-op Food,31B Clifton Road,Rugby,Warwickshire,eng,CV21 3PY,,,,,,,,The Co-operative Group,,,The Co-operative Group,,,,,,,,,,,,,,,,
,,tb,,Runcorn,,Co-op Food,Windmill Hill Ave West,Runcorn,Cheshire,eng,WA7 6QZ,,,,,,,,The Co-operative Group,,,The Co-operative Group,,,,,,,,,,,,,,,,
,,tb,,Runcorn - Halton Road,,Co-op Food,53 Halton Road,Runcorn,Cheshire,eng,WA7 5QU,,,,,,,,The Co-operative Group,,,The Co-operative Group,,,,,,,,,,,,,,,,
,,tb,,Rushden - Grangeway,,Co-op Food,Grangeway,Rushden,Northamptonshire,eng,NN10 9JE,,,,,,,,The Co-operative Group,,,The Co-operative Group,,,,,,,,,,,,,,,,
,,tb,,Saighton - Sandy Lane,,Co-op Food,,Saighton,Cheshire,eng,CH3 6BB,,,,,,,,The Co-operative Group,,,The Co-operative Group,,,,,,,,,,,,,,,,
,,tb,,Sale - Washway Road,,Co-op Food,384 Washway Road,Sale,Greater Manchester,eng,M33 4JH,,,,,,,,The Co-operative Group,,,The Co-operative Group,,,,,,,,,,,,,,,,
,,tb,,Salford - Clippers Quay,,Co-op Food,Clippers Quay,Salford,Greater Manchester,eng,M50 3XP,,,,,,,,The Co-operative Group,,,The Co-operative Group,,,,,,,,,,,,,,,,
,,tb,,Salford - Media City,,Co-op Food,Red Road,Salford,Lancashire,eng,M50 2BS,,,,,,,,The Co-operative Group,,,The Co-operative Group,,,,,,,,,,,,,,,,
,,tb,,Salford - Middlewood Locks,,Co-op Food,1 Lockgate Square,Salford,Lancashire,eng,M5 4YU,,,,,,,,The Co-operative Group,,,The Co-operative Group,,,,,,,,,,,,,,,,
,,tb,,Saltdean,,Co-op Food,51-57 Longridge Ave,Brighton,East Sussex,eng,BN2 8LG,,,,,,,,The Co-operative Group,,,The Co-operative Group,,,,,,,,,,,,,,,,
,,tb,,Sandy - Kestrel Way,,Co-op Food,Kestrel Way,Sandy,Bedfordshire,eng,SG19 2TG,,,,,,,,The Co-operative Group,,,The Co-operative Group,,,,,,,,,,,,,,,,
,,tb,,School Lane,,Co-op Food,5 School Lane,Stockport,Cheshire,eng,SK12 1AX,,,,,,,,The Co-operative Group,,,The Co-operative Group,,,,,,,,,,,,,,,,
,,tb,,Sea Road - Barton on Sea,,Co-op Food,Sea Road,NEW MILTON,Hampshire,eng,BH25 7ND,,,,,,,,The Co-operative Group,,,The Co-operative Group,,,,,,,,,,,,,,,,
,,tb,,Sea Street,,Co-op Food,98 Sea Street,Herne Bay,Kent,eng,CT6 8QF,,,,,,,,The Co-operative Group,,,The Co-operative Group,,,,,,,,,,,,,,,,
,,tb,,Seascale - Gosforth Road,,Co-op Food,Gosforth Road,Seascale,Cumbria,eng,CA20 1PR,,,,,,,,The Co-operative Group,,,The Co-operative Group,,,,,,,,,,,,,,,,
,,tb,,Seaton Sluice Millway Garage,,Co-op Food,Beresford Road,Whitley Bay,Northumberland,eng,NE26 4DP,,,,,,,,The Co-operative Group,,,The Co-operative Group,,,,,,,,,,,,,,,,
,,tb,,Semilong,,Co-op Food,31-33 Semilong Road,Northampton,Northamptonshire,eng,NN2 6BH,,,,,,,,The Co-operative Group,,,The Co-operative Group,,,,,,,,,,,,,,,,
,,tb,,Seven Kings - Cameron Road,,Co-op Food,Cameron Road,Ilford,Essex,eng,IG3 8LG,,,,,,,,The Co-operative Group,,,The Co-operative Group,,,,,,,,,,,,,,,,
,,tb,,Sheddingdean,,Co-op Food,Sheddingdean,Burgess Hill,West Sussex,eng,RH15 8UA,,,,,,,,The Co-operative Group,,,The Co-operative Group,,,,,,,,,,,,,,,,
,,tb,,Sheffield - Glossop Road,,Co-op Food,2 Clarkson Street,Sheffield,South Yorkshire,eng,S10 2TQ,,,,,,,,The Co-operative Group,,,The Co-operative Group,,,,,,,,,,,,,,,,
,,tb,,Shefford - Old Bridge Way,,Co-op Food,Old Bridge Way,Shefford,Bedfordshire,eng,SG17 5AX,,,,,,,,The Co-operative Group,,,The Co-operative Group,,,,,,,,,,,,,,,,
,,tb,,Sherborne,,Co-op Food,Westbridge Park,Sherborne,Dorset,eng,DT9 6AW,,,,,,,,The Co-operative Group,,,The Co-operative Group,,,,,,,,,,,,,,,,
,,tb,,Shevington,,Co-op Food,Gathurst Lane,Wigan,Lancashire,eng,WN6 8HA,,,,,,,,The Co-operative Group,,,The Co-operative Group,,,,,,,,,,,,,,,,
,,tb,,Shifnal - High Street,,Co-op Food,High Street,Shifnal,Shropshire,eng,TF11 8BL,,,,,,,,The Co-operative Group,,,The Co-operative Group,,,,,,,,,,,,,,,,
,,tb,,Shinfield - School Green,,Co-op Food,39 School Green,Reading,Wokingham,eng,RG2 9EE,,,,,,,,The Co-operative Group,,,The Co-operative Group,,,,,,,,,,,,,,,,
,,tb,,Shirehampton,,Co-op Food,47-49 High Street,Bristol,Avon,eng,BS11 0DW,,,,,,,,The Co-operative Group,,,The Co-operative Group,,,,,,,,,,,,,,,,
,,tb,,Shirley,,Co-op Food,225-227 Wickham Road,Croydon,Surrey,eng,CR0 8TG,,,,,,,,The Co-operative Group,,,The Co-operative Group,,,,,,,,,,,,,,,,
,,tb,,Slade Road - Sutton Coldfield,,Co-op Food,Slade Road,Sutton Coldfield,West Midlands,eng,B75 5PF,,,,,,,,The Co-operative Group,,,The Co-operative Group,,,,,,,,,,,,,,,,
,,tb,,South Cerney - High Street,,Co-op Food,High Street,Cirencester,Gloucestershire,eng,GL7 5UG,,,,,,,,The Co-operative Group,,,The Co-operative Group,,,,,,,,,,,,,,,,
,,tb,,South Coast Road Peacehaven,,Co-op Food,163-165 South Coast Road,Peacehaven,East Sussex,eng,BN10 8NP,,,,,,,,The Co-operative Group,,,The Co-operative Group,,,,,,,,,,,,,,,,
,,tb,,South Darenth,,Co-op Food,The Mill,Dartford,Kent,eng,DA4 9BD,,,,,,,,The Co-operative Group,,,The Co-operative Group,,,,,,,,,,,,,,,,
,,tb,,South East Road,,Co-op Food,141 South East Road,Southampton,Hampshire,eng,SO19 8JS,,,,,,,,The Co-operative Group,,,The Co-operative Group,,,,,,,,,,,,,,,,
,,tb,,South Elmsall,,Co-op Food,58 Ash Grove,Pontefract,West Yorkshire,eng,WF9 2UP,,,,,,,,The Co-operative Group,,,The Co-operative Group,,,,,,,,,,,,,,,,
,,tb,,South Lodge Avenue - Mitcham,,Co-op Food,32 South Lodge Avenue,Mitcham,Surrey,eng,CR4 1LU,,,,,,,,The Co-operative Group,,,The Co-operative Group,,,,,,,,,,,,,,,,
,,tb,,South Parade - Southsea,,Co-op Food,South Parade,Southsea,Hampshire,eng,PO4 0SS,,,,,,,,The Co-operative Group,,,The Co-operative Group,,,,,,,,,,,,,,,,
,,tb,,South Woodford - George Lane,,Co-op Food,55-57 George Lane,South Woodford,London,eng,E18 1JJ,,,,,,,,The Co-operative Group,,,The Co-operative Group,,,,,,,,,,,,,,,,
,,tb,,Southend,,Co-op Food,57 Sutton Road,Southend-On-Sea,Essex,eng,SS2 5PB,,,,,,,,The Co-operative Group,,,The Co-operative Group,,,,,,,,,,,,,,,,
,,tb,,Southey Green,,Co-op Food,261-263 Southey Green Road,Sheffield,South Yorkshire,eng,S5 7QB,,,,,,,,The Co-operative Group,,,The Co-operative Group,,,,,,,,,,,,,,,,
,,tb,,Spen Lane,,Co-op Food,433 Spen Lane,Leeds,West Yorkshire,eng,LS16 6JE,,,,,,,,The Co-operative Group,,,The Co-operative Group,,,,,,,,,,,,,,,,
,,tb,,Springfield Stokesley,,Co-op Food,Springfield,Middlesbrough,Cleveland,eng,TS9 5ER,,,,,,,,The Co-operative Group,,,The Co-operative Group,,,,,,,,,,,,,,,,
,,tb,,St Andrews Square,,Co-op Food,St Andrews Square,Rotherham,South Yorkshire,eng,S63 8DD,,,,,,,,The Co-operative Group,,,The Co-operative Group,,,,,,,,,,,,,,,,
,,tb,,St Annes,,Co-op Food,99 Headroomgate Road,Lytham St Annes,Lancashire,eng,FY8 3BG,,,,,,,,The Co-operative Group,,,The Co-operative Group,,,,,,,,,,,,,,,,
,,tb,,St Columb Major - Fore Street,,Co-op Food,56 - 58 Fore Street,St. Columb,Cornwall,eng,TR9 6AL,,,,,,,,The Co-operative Group,,,The Co-operative Group,,,,,,,,,,,,,,,,
,,tb,,St Helens,,Co-op Food,449 Prescot Road,St. Helens,Merseyside,eng,WA10 3BD,,,,,,,,The Co-operative Group,,,The Co-operative Group,,,,,,,,,,,,,,,,
,,tb,,St Helens - Elton Head Road,,Co-op Food,Elton Head Road,St Helens,Merseyside,eng,WA9 5BT,,,,,,,,The Co-operative Group,,,The Co-operative Group,,,,,,,,,,,,,,,,
,,tb,,St Ives,,Co-op Food,Royal Square,Penzance,Cornwall,eng,TR26 2ND,,,,,,,,The Co-operative Group,,,The Co-operative Group,,,,,,,,,,,,,,,,
,,tb,,St Ives - The Stennack,,Co-op Food,The Stennack,St Ives,Cornwall,eng,TR26 1DB,,,,,,,,The Co-operative Group,,,The Co-operative Group,,,,,,,,,,,,,,,,
,,tb,,St Johns - Worcs,,Co-op Food,8-10 The Bullring,Worcester,Worcestershire,eng,WR2 5AH,,,,,,,,The Co-operative Group,,,The Co-operative Group,,,,,,,,,,,,,,,,
,,tb,,St Johns Street,,Co-op Food,100 St. John’s Street,Bridlington,North Humberside,eng,YO16 7JS,,,,,,,,The Co-operative Group,,,The Co-operative Group,,,,,,,,,,,,,,,,
,,tb,,St Peters,,Co-op Food,Hopeville Avenue,Broadstairs,Kent,eng,CT10 2TR,,,,,,,,The Co-operative Group,,,The Co-operative Group,,,,,,,,,,,,,,,,
,,tb,,St. Albans - London Road,,Co-op Food,40-42 London Road,St Albans,Hertfordshire,eng,AL1 1NG,,,,,,,,The Co-operative Group,,,The Co-operative Group,,,,,,,,,,,,,,,,
,,tb,,Staines - London Square,,Co-op Food,126 High Street,Staines-upon-Thames,Middlesex,eng,TW18 4BY,,,,,,,,The Co-operative Group,,,The Co-operative Group,,,,,,,,,,,,,,,,
,,tb,,Stannington,,Co-op Food,646-648 Stannington Road,Sheffield,South Yorkshire,eng,S6 6AE,,,,,,,,The Co-operative Group,,,The Co-operative Group,,,,,,,,,,,,,,,,
,,tb,,Station Road - Sutton on Sea,,Co-op Food,Station Road,Mablethorpe,Lincolnshire,eng,LN12 2HJ,,,,,,,,The Co-operative Group,,,The Co-operative Group,,,,,,,,,,,,,,,,
,,tb,,Stockport - 76-78 Heaton Moor Road,,Co-op Food,76-80 Heaton Moor Road,Stockport,Cheshire,eng,SK4 4NZ,,,,,,,,The Co-operative Group,,,The Co-operative Group,,,,,,,,,,,,,,,,
,,tb,,Stockport - Didsbury Road,,Co-op Food,63 Didsbury Road,Stockport,Cheshire,eng,SK4 2BA,,,,,,,,The Co-operative Group,,,The Co-operative Group,,,,,,,,,,,,,,,,
,,tb,,Stoke sub Hamdon,,Co-op Food,115 Montacute Road,Yeovil,Somerset,eng,TA14 6UQ,,,,,,,,The Co-operative Group,,,The Co-operative Group,,,,,,,,,,,,,,,,
,,tb,,Stoneleigh,,Co-op Food,34-36 Stoneleigh Broadway,Epsom,Surrey,eng,KT17 2HU,,,,,,,,The Co-operative Group,,,The Co-operative Group,,,,,,,,,,,,,,,,
,,tb,,Stratford-Upon-Avon Wordsworth Ave,,Co-op Food,Wordsworth Avenue,Stratford-Upon-Avon,Warwickshire,eng,CV37 7BN,,,,,,,,The Co-operative Group,,,The Co-operative Group,,,,,,,,,,,,,,,,
,,tb,,Streatham Vale,,Co-op Food,107-109 Streatham Vale,London,Greater London,eng,SW16 5SQ,,,,,,,,The Co-operative Group,,,The Co-operative Group,,,,,,,,,,,,,,,,
,,tb,,Stroud Road - Gloucester,,Co-op Food,Stroud Road,Gloucester,Gloucestershire,eng,GL4 0DA,,,,,,,,The Co-operative Group,,,The Co-operative Group,,,,,,,,,,,,,,,,
,,tb,,"Sturminster Marshall - Station
Road",,Co-op Food,27 Station Road,Wimborne,Dorset,eng,BH21 4AW,,,,,,,,The Co-operative Group,,,The Co-operative Group,,,,,,,,,,,,,,,,
,,tb,,Sunderland - Broadway,,Co-op Food,Springwell Road,Sunderland,Tyne and Wear,eng,SR4 8NW,,,,,,,,The Co-operative Group,,,The Co-operative Group,,,,,,,,,,,,,,,,
,,tb,,Surbiton - Ellerton Road,,Co-op Food,2a Ellerton Road,Surbiton,Surrey,eng,KT6 7TX,,,,,,,,The Co-operative Group,,,The Co-operative Group,,,,,,,,,,,,,,,,
,,tb,,Sway - Station Road,,Co-op Food,Station Road,Lymington,Hampshire,eng,SO41 6BA,,,,,,,,The Co-operative Group,,,The Co-operative Group,,,,,,,,,,,,,,,,
,,tb,,Swinnow Lane,,Co-op Food,Swinnow Lane,Leeds,West Yorkshire,eng,LS13 4RJ,,,,,,,,The Co-operative Group,,,The Co-operative Group,,,,,,,,,,,,,,,,
,,tb,,Swinton,,Co-op Food,71 Station Street,Mexborough,South Yorkshire,eng,S64 8PZ,,,,,,,,The Co-operative Group,,,The Co-operative Group,,,,,,,,,,,,,,,,
,,tb,,Tang Hall Lane,,Co-op Food,143-145 Tang Hall Lane,York,North Yorkshire,eng,YO10 3SD,,,,,,,,The Co-operative Group,,,The Co-operative Group,,,,,,,,,,,,,,,,
,,tb,,Tarleton,,Co-op Food,71 Church Road,Preston,Lancashire,eng,PR4 6UP,,,,,,,,The Co-operative Group,,,The Co-operative Group,,,,,,,,,,,,,,,,
,,tb,,Tattenham Corner,,Co-op Food,43-49 Tattenham Crescent,Epsom,Surrey,eng,KT18 5NX,,,,,,,,The Co-operative Group,,,The Co-operative Group,,,,,,,,,,,,,,,,
,,tb,,Tavistock,,Co-op Food,Brook Street,Tavistock,Devon,eng,PL19 0BJ,,,,,,,,The Co-operative Group,,,The Co-operative Group,,,,,,,,,,,,,,,,
,,tb,,Taylors Road,,Co-op Food,5 Taylors Road,Manchester,Greater Manchester,eng,M32 0JA,,,,,,,,The Co-operative Group,,,The Co-operative Group,,,,,,,,,,,,,,,,
,,tb,,Teddington,,Co-op Food,210 Kingston Road,Teddington,Greater London,eng,TW11 9JF,,,,,,,,The Co-operative Group,,,The Co-operative Group,,,,,,,,,,,,,,,,
,,tb,,Telford - Stafford Street,,Co-op Food,Stafford Street,Telford,Shropshire,eng,TF2 9JQ,,,,,,,,The Co-operative Group,,,The Co-operative Group,,,,,,,,,,,,,,,,
,,tb,,Telford Milners Lane,,Co-op Food,Milners Lane,Telford,Shropshire,eng,TF4 2JH,,,,,,,,The Co-operative Group,,,The Co-operative Group,,,,,,,,,,,,,,,,
,,tb,,Templecombe - High Street,,Co-op Food,High Street,Somerset,,eng,BA8 0JA,,,,,,,,The Co-operative Group,,,The Co-operative Group,,,,,,,,,,,,,,,,
,,tb,,Thatcham - Harts Hill Road,,Co-op Food,Harts Hill Road,Thatcham,Berkshire,eng,RG18 4NU,,,,,,,,The Co-operative Group,,,The Co-operative Group,,,,,,,,,,,,,,,,
,,tb,,Thatcham - Station Road,,Co-op Food,Burwood Centre,Newbury,Hampshire,eng,RG19 4YA,,,,,,,,The Co-operative Group,,,The Co-operative Group,,,,,,,,,,,,,,,,
,,tb,,The Hill - Sandbach,,Co-op Food,The Hill,Sandbach,Cheshire,eng,CW11 1HT,,,,,,,,The Co-operative Group,,,The Co-operative Group,,,,,,,,,,,,,,,,
,,tb,,Thornhill,,Co-op Food,36 Savile Centre,Dewsbury,West Yorkshire,eng,WF12 0QY,,,,,,,,The Co-operative Group,,,The Co-operative Group,,,,,,,,,,,,,,,,
,,tb,,Torquay - Ilsham Road,,Co-op Food,5-7 Ilsham Road,Torquay,Devon,eng,TQ1 2JG,,,,,,,,The Co-operative Group,,,The Co-operative Group,,,,,,,,,,,,,,,,
,,tb,,Torquay - Roundhill Road,,Co-op Food,18 Roundhill Road,Torquay,Torbay,eng,TQ2 6TH,,,,,,,,The Co-operative Group,,,The Co-operative Group,,,,,,,,,,,,,,,,
,,tb,,Torquay - Torwood Street,,Co-op Food,Torwood Street,Devon,Devonshire,eng,TQ1 1DP,,,,,,,,The Co-operative Group,,,The Co-operative Group,,,,,,,,,,,,,,,,
,,tb,,Trehaven Parade,,Co-op Food,4 Trehaven Parade,Reigate,Surrey,eng,RH2 7LL,,,,,,,,The Co-operative Group,,,The Co-operative Group,,,,,,,,,,,,,,,,
,,tb,,Tring,,Co-op Food,2-4 Silk Mill Way,Tring,Hertfordshire,eng,HP23 5EP,,,,,,,,The Co-operative Group,,,The Co-operative Group,,,,,,,,,,,,,,,,
,,tb,,Troubridge Square - Walthamstow,,Co-op Food,Troubridge Square,London,Greater London,eng,E17 3GN,,,,,,,,The Co-operative Group,,,The Co-operative Group,,,,,,,,,,,,,,,,
,,tb,,Twickenham - Hampton Road,,Co-op Food,224-230 Hampton Road,Twickenham,Greater London,eng,TW2 5NJ,,,,,,,,The Co-operative Group,,,The Co-operative Group,,,,,,,,,,,,,,,,
,,tb,,Twickenham - Richmond Road,,Co-op Food,71 Richmond Road,Twickenham,Greater London,eng,TW1 3AW,,,,,,,,The Co-operative Group,,,The Co-operative Group,,,,,,,,,,,,,,,,
,,tb,,Ulverston - Priory Road,,Co-op Food,Priory Road,Ulverston,Lancashire,eng,LA12 9HR,,,,,,,,The Co-operative Group,,,The Co-operative Group,,,,,,,,,,,,,,,,
,,tb,,UNIF Keele University,,Co-op Food,Keele Road,Keele,Staffordshire,eng,ST5 5BJ,,,,,,,,The Co-operative Group,,,The Co-operative Group,,,,,,,,,,,,,,,,
,,tb,,Upper Belvedere,,Co-op Food,56 Nuxley Road,Upper Belvedere,Kent,eng,DA17 5JG,,,,,,,,The Co-operative Group,,,The Co-operative Group,,,,,,,,,,,,,,,,
,,tb,,Upper Shoreham Rd,,Co-op Food,Upper Shoreham Road,Brighton,West Sussex,eng,BN43 6TB,,,,,,,,The Co-operative Group,,,The Co-operative Group,,,,,,,,,,,,,,,,
,,tb,,Upwell - Town Street,,Co-op Food,Town Street,WISBECH,Cambridgeshire,eng,PE14 9AF,,,,,,,,The Co-operative Group,,,The Co-operative Group,,,,,,,,,,,,,,,,
,,tb,,Vernon Road,,Co-op Food,2 Vernon Road,Bury,Lancashire,eng,BL8 4DD,,,,,,,,The Co-operative Group,,,The Co-operative Group,,,,,,,,,,,,,,,,
,,tb,,Wallington,,Co-op Food,Mollison Drive,Wallington,Surrey,eng,SM6 9DA,,,,,,,,The Co-operative Group,,,The Co-operative Group,,,,,,,,,,,,,,,,
,,tb,,Walters Ash,,Co-op Food,312 Main Road,High Wycombe,Buckinghamshire,eng,HP14 4TH,,,,,,,,The Co-operative Group,,,The Co-operative Group,,,,,,,,,,,,,,,,
,,tb,,Walthamstow - Billet Road,,Co-op Food,Billet Road,Walthamstow,London,eng,E17 5DT,,,,,,,,The Co-operative Group,,,The Co-operative Group,,,,,,,,,,,,,,,,
,,tb,,Wandsworth - Garratt Lane,,Co-op Food,130-138 Garratt Lane,London,Greater London,eng,SW18 4EE,,,,,,,,The Co-operative Group,,,The Co-operative Group,,,,,,,,,,,,,,,,
,,tb,,Wandsworth - Steam Bar,,Co-op Food,55-57 East Hill,London,Greater London,eng,SW18 2QE,,,,,,,,The Co-operative Group,,,The Co-operative Group,,,,,,,,,,,,,,,,
,,tb,,Watchet,,Co-op Food,42-43 Swain St,Watchet,Somerset,eng,TA23 0AE,,,,,,,,The Co-operative Group,,,The Co-operative Group,,,,,,,,,,,,,,,,
,,tb,,Waterhays,,Co-op Food,"Unit 1-3, Barbridge Road",Newcastle-Under-Lyme,Staffordshire,eng,ST5 7SB,,,,,,,,The Co-operative Group,,,The Co-operative Group,,,,,,,,,,,,,,,,
,,tb,,Watford Road - Chiswell Green,,Co-op Food,212 Watford Road,St. Albans,Hertfordshire,eng,AL2 3EA,,,,,,,,The Co-operative Group,,,The Co-operative Group,,,,,,,,,,,,,,,,
,,tb,,Watford Road - Croxley Green,,Co-op Food,189 - 191 Watford Road,Rickmansworth,Hertfordshire,eng,WD3 3TL,,,,,,,,The Co-operative Group,,,The Co-operative Group,,,,,,,,,,,,,,,,
,,tb,,Wesham,,Co-op Food,76-78 Weeton Road,Preston,Lancashire,eng,PR4 3BQ,,,,,,,,The Co-operative Group,,,The Co-operative Group,,,,,,,,,,,,,,,,
,,tb,,West Auckland Road,,Co-op Food,25-58 West Auckland Road,Darlington,County Durham,eng,DL3 9EP,,,,,,,,The Co-operative Group,,,The Co-operative Group,,,,,,,,,,,,,,,,
,,tb,,West Bridgford,,Co-op Food,Bridgford Road,Nottingham,Nottinghamshire,eng,NG2 6AP,,,,,,,,The Co-operative Group,,,The Co-operative Group,,,,,,,,,,,,,,,,
,,tb,,West Kingsdown,,Co-op Food,32-34 Hever Road,Sevenoaks,Kent,eng,TN15 6HD,,,,,,,,The Co-operative Group,,,The Co-operative Group,,,,,,,,,,,,,,,,
,,tb,,West Park Village,,Co-op Food,Unit 10,Darlington,County Durham,eng,DL2 2GL,,,,,,,,The Co-operative Group,,,The Co-operative Group,,,,,,,,,,,,,,,,
,,tb,,West Point,,Co-op Food,Unit 1b West Point,Leeds,West Yorkshire,eng,LS1 4JJ,,,,,,,,The Co-operative Group,,,The Co-operative Group,,,,,,,,,,,,,,,,
,,tb,,Westbury-on-Trym,,Co-op Food,Canford Lane,Bristol,Avon,eng,BS9 3DF,,,,,,,,The Co-operative Group,,,The Co-operative Group,,,,,,,,,,,,,,,,
,,tb,,Westdale Lane,,Co-op Food,320 Westdale Lane,Nottingham,Nottinghamshire,eng,NG3 6EU,,,,,,,,The Co-operative Group,,,The Co-operative Group,,,,,,,,,,,,,,,,
,,tb,,Westerham,,Co-op Food,6 The Grange,Westerham,Kent,eng,TN16 1RF,,,,,,,,The Co-operative Group,,,The Co-operative Group,,,,,,,,,,,,,,,,
,,tb,,Westgate,,Co-op Food,45-47 Westgate,Skelmersdale,Lancashire,eng,WN8 8LP,,,,,,,,The Co-operative Group,,,The Co-operative Group,,,,,,,,,,,,,,,,
,,tb,,Westhorne Avenue,,Co-op Food,546-550 Westhorne Ave,London,Greater London,eng,SE9 6DR,,,,,,,,The Co-operative Group,,,The Co-operative Group,,,,,,,,,,,,,,,,
,,tb,,Westminster - Portman Square,,Co-op Food,10 Portman Square,London,Greater London,eng,W1U 3AA,,,,,,,,The Co-operative Group,,,The Co-operative Group,,,,,,,,,,,,,,,,
,,tb,,Westminster - Westbourne Grove,,Co-op Food,108 Westbourne Grove,London,Greater London,eng,W2 5RU,,,,,,,,The Co-operative Group,,,The Co-operative Group,,,,,,,,,,,,,,,,
,,tb,,Westmorland Close,,Co-op Food,16 Westmorland Close,Macclesfield,Cheshire,eng,SK10 3ET,,,,,,,,The Co-operative Group,,,The Co-operative Group,,,,,,,,,,,,,,,,
,,tb,,Weston Coyney,,Co-op Food,New Kingsway,Stoke-On-Trent,Staffordshire,eng,ST3 6NA,,,,,,,,The Co-operative Group,,,The Co-operative Group,,,,,,,,,,,,,,,,
,,tb,,Westward Ho!,,Co-op Food,2 Golf Links Road,Bideford,Devon,eng,EX39 1LH,,,,,,,,The Co-operative Group,,,The Co-operative Group,,,,,,,,,,,,,,,,
,,tb,,Weymouth - Buxton Road,,Co-op Food,10 Buxton Road,Weymouth,Dorset,eng,DT4 9PF,,,,,,,,The Co-operative Group,,,The Co-operative Group,,,,,,,,,,,,,,,,
,,tb,,Whetstone - Warwick Road,,Co-op Food,Cambridge Road,Blaby,Leicestershire,eng,LE8 6LF,,,,,,,,The Co-operative Group,,,The Co-operative Group,,,,,,,,,,,,,,,,
,,tb,,Whipperley,,Co-op Food,13-15 Market Sq,Luton,Bedfordshire,eng,LU1 5RD,,,,,,,,The Co-operative Group,,,The Co-operative Group,,,,,,,,,,,,,,,,
,,tb,,Whitburn - Mill Lane,,Co-op Food,Elders Walk,Sunderland,County Durham,eng,SR6 7EL,,,,,,,,The Co-operative Group,,,The Co-operative Group,,,,,,,,,,,,,,,,
,,tb,,Whiteknights Campus - Reading,,Co-op Food,Shinfield Road,Reading,Berkshire,eng,RG6 6UA,,,,,,,,The Co-operative Group,,,The Co-operative Group,,,,,,,,,,,,,,,,
,,tb,,Whitley Bay - Earsdon Road,,Co-op Food,Earsdon Road,Whitley Bay,Tyne and Wear,eng,NE25 9SX,,,,,,,,The Co-operative Group,,,The Co-operative Group,,,,,,,,,,,,,,,,
,,tb,,Whitley Bay - Marine Avenue,,Co-op Food,Marine Avenue,Whitley Bay,Tyne and Wear,eng,NE26 1LY,,,,,,,,The Co-operative Group,,,The Co-operative Group,,,,,,,,,,,,,,,,
,,tb,,Whitstable - Canterbury Rd,,Co-op Food,14-16 Canterbury Road,Whitstable,Kent,eng,CT5 4EX,,,,,,,,The Co-operative Group,,,The Co-operative Group,,,,,,,,,,,,,,,,
,,tb,,Wigmore Lane,,Co-op Food,78-80 Wigmore Lane,Luton,Bedfordshire,eng,LU2 8AB,,,,,,,,The Co-operative Group,,,The Co-operative Group,,,,,,,,,,,,,,,,
,,tb,,Willesden Green - Walm Lane,,Co-op Food,57-59 Walm Lane,London,Greater London,eng,NW2 4QR,,,,,,,,The Co-operative Group,,,The Co-operative Group,,,,,,,,,,,,,,,,
,,tb,,Wilmslow - Water Lane,,Co-op Food,51 Water Lane,Wilmslow,Cheshire,eng,SK9 5AW,,,,,,,,The Co-operative Group,,,The Co-operative Group,,,,,,,,,,,,,,,,
,,tb,,Wimbledon - Haydons Road,,Co-op Food,298 Haydons Road,London,Greater London,eng,SW19 8JZ,,,,,,,,The Co-operative Group,,,The Co-operative Group,,,,,,,,,,,,,,,,
,,tb,,Wimbledon Chase,,Co-op Food,276-288 Kingston Road,London,Greater London,eng,SW20 8LX,,,,,,,,The Co-operative Group,,,The Co-operative Group,,,,,,,,,,,,,,,,
,,tb,,Windermere,,Co-op Food,2 Oak Street,Windermere,Cumbria,eng,LA23 1EN,,,,,,,,The Co-operative Group,,,The Co-operative Group,,,,,,,,,,,,,,,,
,,tb,,Windermere Road,,Co-op Food,10-12 Windermere Road,Newcastle-Under-Lyme,Staffordshire,eng,ST5 3HH,,,,,,,,The Co-operative Group,,,The Co-operative Group,,,,,,,,,,,,,,,,
,,tb,,Wingate - Durham Road,,Co-op Food,Durham Road,Wingate,County Durham,eng,TS28 5HS,,,,,,,,The Co-operative Group,,,The Co-operative Group,,,,,,,,,,,,,,,,
,,tb,,Winnington - District Centre,,Co-op Food,53 Walker Road,NORTHWICH,Cheshire,eng,CW8 4UD,,,,,,,,The Co-operative Group,,,The Co-operative Group,,,,,,,,,,,,,,,,
,,tb,,Winstanley New,,Co-op Food,73 Holmes House Avenue,Wigan,Lancashire,eng,WN3 6JA,,,,,,,,The Co-operative Group,,,The Co-operative Group,,,,,,,,,,,,,,,,
,,tb,,Winter Hey Lane,,Co-op Food,75-81 Winter Hey Lane,Bolton,Lancashire,eng,BL6 7PA,,,,,,,,The Co-operative Group,,,The Co-operative Group,,,,,,,,,,,,,,,,
,,tb,,Wistaston - Crewe Road,,Co-op Food,Crewe Road,Crewe,Cheshire,eng,CW2 6QT,,,,,,,,The Co-operative Group,,,The Co-operative Group,,,,,,,,,,,,,,,,
,,tb,,Wiveliscombe,,Co-op Food,The Square,Taunton,Somerset,eng,TA4 2JT,,,,,,,,The Co-operative Group,,,The Co-operative Group,,,,,,,,,,,,,,,,
,,tb,,Woking - Westfield Road,,Co-op Food,53 Westfield Road,Woking,Surrey,eng,GU22 9NQ,,,,,,,,The Co-operative Group,,,The Co-operative Group,,,,,,,,,,,,,,,,
,,tb,,Wollaton - Lambourne Drive,,Co-op Food,2b Lambourne Drive,Nottingham,Nottinghamshire,eng,NG8 1GR,,,,,,,,The Co-operative Group,,,The Co-operative Group,,,,,,,,,,,,,,,,
,,tb,,Woodbridge Hill,,Co-op Food,48 Woodbridge Hill,Guildford,Surrey,eng,GU2 9AB,,,,,,,,The Co-operative Group,,,The Co-operative Group,,,,,,,,,,,,,,,,
,,tb,,Woodsetton - Sedgley Road,,Co-op Food,67 Sedgley Road,Dudley,West Midlands,eng,DY1 4NE,,,,,,,,The Co-operative Group,,,The Co-operative Group,,,,,,,,,,,,,,,,
,,tb,,Woodway Lane,,Co-op Food,Woodway Lane,Coventry,West Midlands,eng,CV2 2HX,,,,,,,,The Co-operative Group,,,The Co-operative Group,,,,,,,,,,,,,,,,
,,tb,,Woolstanwood,,Co-op Food,645 West Street,Crewe,Cheshire,eng,CW2 8SL,,,,,,,,The Co-operative Group,,,The Co-operative Group,,,,,,,,,,,,,,,,
,,tb,,Woolston - Bridge Road,,Co-op Food,49-51 Bridge Road,Southampton,Hampshire,eng,SO19 7GP,,,,,,,,The Co-operative Group,,,The Co-operative Group,,,,,,,,,,,,,,,,
,,tb,,Woolton,,Co-op Food,273 Speke Road,Liverpool,Merseyside,eng,L25 0NN,,,,,,,,The Co-operative Group,,,The Co-operative Group,,,,,,,,,,,,,,,,
,,tb,,Wootton Fields,,Co-op Food,Wootton Fields Centre,Northampton,Northamptonshire,eng,NN4 6DY,,,,,,,,The Co-operative Group,,,The Co-operative Group,,,,,,,,,,,,,,,,
,,tb,,Worcester - Barker Street,,Co-op Food,Barker Street,Worcester,Worcestershire,eng,WR3 8NP,,,,,,,,The Co-operative Group,,,The Co-operative Group,,,,,,,,,,,,,,,,
,,tb,,Wordsworth Avenue,,Co-op Food,Wordsworth Avenue,Newport Pagnell,Milton Keynes,eng,MK16 8SB,,,,,,,,The Co-operative Group,,,The Co-operative Group,,,,,,,,,,,,,,,,
,,tb,,Worle - High Street,,Co-op Food,148 High Street,Weston-Super-Mare,Avon,eng,BS22 6HG,,,,,,,,The Co-operative Group,,,The Co-operative Group,,,,,,,,,,,,,,,,
,,tb,,Worthing - Tarring Road,,Co-op Food,49-56 New Broadway,Worthing,West Sussex,eng,BN11 4HS,,,,,,,,The Co-operative Group,,,The Co-operative Group,,,,,,,,,,,,,,,,
,,tb,,Wraysbury Windsor Road,,Co-op Food,31 Windsor Road,Staines-Upon-Thames,Greater London,eng,TW19 5DE,,,,,,,,The Co-operative Group,,,The Co-operative Group,,,,,,,,,,,,,,,,
,,tb,,Writtle,,Co-op Food,38-40 Long Brandocks,Chelmsford,Essex,eng,CM1 3JP,,,,,,,,The Co-operative Group,,,The Co-operative Group,,,,,,,,,,,,,,,,
,,tb,,Wyberton - London Road,,Co-op Food,289 London Road,Boston,Lincolnshire,eng,PE21 7DD,,,,,,,,The Co-operative Group,,,The Co-operative Group,,,,,,,,,,,,,,,,
,,tb,,Wylam - Main Road,,Co-op Food,Main Road,Wylam,Northumberland,eng,NE41 8DN,,,,,,,,The Co-operative Group,,,The Co-operative Group,,,,,,,,,,,,,,,,
,,tb,,Wynyard,,Co-op Food,Unit 2 The Granary,Billingham,Cleveland,eng,TS22 5QG,,,,,,,,The Co-operative Group,,,The Co-operative Group,,,,,,,,,,,,,,,,
,,tb,,Yarm - Davenport Road,,Co-op Food,Davenport Road,Yarm,Cleveland,eng,TS15 9TN,,,,,,,,The Co-operative Group,,,The Co-operative Group,,,,,,,,,,,,,,,,
,,tb,,Yeovil - 176 St. Michaels Ave,,Co-op Food,176 St. Michaels Avenue,Yeovil,Somerset,eng,BA21 4LX,,,,,,,,The Co-operative Group,,,The Co-operative Group,,,,,,,,,,,,,,,,
,,tb,,York - The Stonebow,,Co-op Food,8-10 The Stonebow,York,,eng,YO1 7NP,,,,,,,,The Co-operative Group,,,The Co-operative Group,,,,,,,,,,,,,,,,
,,tb,,Ayr - Alloway,,Co-op Food,Dunure Road,Ayr,South Ayrshire,sct,KA7 4HY,,,,,,,,The Co-operative Group,,,The Co-operative Group,,,,,,,,,,,,,,,,
,,tb,,Ballysillan Road,,Co-op Food,323 Ballysillan Road,Belfast,County Antrim,nir,BT14 6RE,,,,,,,,The Co-operative Group,,,The Co-operative Group,,,,,,,,,,,,,,,,
,,tb,,Banchory,,Co-op Food,37 High Street,Banchory,Kincardineshire,sct,AB31 5TJ,,,,,,,,The Co-operative Group,,,The Co-operative Group,,,,,,,,,,,,,,,,
,,tb,,Bearsden - Stockiemuir Avenue,,Co-op Food,57 - 59 Stockiemuir Avenue,Glasgow,Lanarkshire,sct,G61 3JJ,,,,,,,,The Co-operative Group,,,The Co-operative Group,,,,,,,,,,,,,,,,
,,tb,,Beersbridge,,Co-op Food,361 Beersbridge Road,Belfast,County Antrim,nir,BT5 5DT,,,,,,,,The Co-operative Group,,,The Co-operative Group,,,,,,,,,,,,,,,,
,,tb,,Belsize Road,,Co-op Food,100 Belsize Road,Lisburn,County Antrim,nir,BT27 4BP,,,,,,,,The Co-operative Group,,,The Co-operative Group,,,,,,,,,,,,,,,,
,,tb,,Blackburn Aberdeen,,Co-op Food,Main Street,Aberdeen,Aberdeenshire,sct,AB21 0XN,,,,,,,,The Co-operative Group,,,The Co-operative Group,,,,,,,,,,,,,,,,
,,tb,,Blackwood - Carlisle Road,,Co-op Food,75 Carlisle Road,Lanark,South Lanarkshire,sct,ML11 9RZ,,,,,,,,The Co-operative Group,,,The Co-operative Group,,,,,,,,,,,,,,,,
,,tb,,Blairgowrie - Coupar Angus Road,,Co-op Food,Coupar Angus Road,Blairgowrie,Perthshire,sct,PH10 6JR,,,,,,,,The Co-operative Group,,,The Co-operative Group,,,,,,,,,,,,,,,,
,,tb,,Buchan Road - Fraserburgh,,Co-op Food,Buchan Road,Fraserburgh,Aberdeenshire,sct,AB43 9UG,,,,,,,,The Co-operative Group,,,The Co-operative Group,,,,,,,,,,,,,,,,
,,tb,,Burghmuir Drive,,Co-op Food,Burghmuir Drive,Inverurie,Aberdeenshire,sct,AB51 4GY,,,,,,,,The Co-operative Group,,,The Co-operative Group,,,,,,,,,,,,,,,,
,,tb,,Callander,,Co-op Food,124 Main Street,Callander,Stirling,sct,FK17 8BG,,,,,,,,The Co-operative Group,,,The Co-operative Group,,,,,,,,,,,,,,,,
,,tb,,Cardwell Road,,Co-op Food,40 Cardwell Road,Gourock,Inverclyde,sct,PA19 1UH,,,,,,,,The Co-operative Group,,,The Co-operative Group,,,,,,,,,,,,,,,,
,,tb,,Carnoustie - Barry Road,,Co-op Food,Barry Road,Carnoustie,Angus,sct,DD7 7QJ,,,,,,,,The Co-operative Group,,,The Co-operative Group,,,,,,,,,,,,,,,,
,,tb,,Conon Bridge - School Road,,Co-op Food,School Road,Dingwall,Ross-Shire,sct,IV7 8AF,,,,,,,,The Co-operative Group,,,The Co-operative Group,,,,,,,,,,,,,,,,
,,tb,,Cove Bay,,Co-op Food,125 Loirston Avenue,Aberdeen,Aberdeenshire,sct,AB12 3HE,,,,,,,,The Co-operative Group,,,The Co-operative Group,,,,,,,,,,,,,,,,
,,tb,,Cradlehall,,Co-op Food,Cradlehall Court,Inverness,Inverness-shire,sct,IV2 5DH,,,,,,,,The Co-operative Group,,,The Co-operative Group,,,,,,,,,,,,,,,,
,,tb,,Cregagh,,Co-op Food,61 Cregagh Road,Belfast,County Antrim,nir,BT6 8PY,,,,,,,,The Co-operative Group,,,The Co-operative Group,,,,,,,,,,,,,,,,
,,tb,,Dalgety Bay - Harbour Drive,,Co-op Food,28 Lt Sales Avenue,Dunfermline,Fife,sct,KY11 9GB,,,,,,,,The Co-operative Group,,,The Co-operative Group,,,,,,,,,,,,,,,,
,,tb,,Danderhall,,Co-op Food,2B Church Newton Road,Edinburgh,Midlothian,sct,EH22 1LT,,,,,,,,The Co-operative Group,,,The Co-operative Group,,,,,,,,,,,,,,,,
,,tb,,Darvel,,Co-op Food,23 East Main Street,Darvel,Ayr,sct,KA17 0HR,,,,,,,,The Co-operative Group,,,The Co-operative Group,,,,,,,,,,,,,,,,
,,tb,,Dingwall,,Co-op Food,Old Evanton Road,Dingwall,Highlands,sct,IV15 9GA,,,,,,,,The Co-operative Group,,,The Co-operative Group,,,,,,,,,,,,,,,,
,,tb,,Doune - Castlehill Court,,Co-op Food,Castlehill Court,Doune,Perthshire,sct,FK16 6BT,,,,,,,,The Co-operative Group,,,The Co-operative Group,,,,,,,,,,,,,,,,
,,tb,,Dreghorn,,Co-op Food,96 Townfoot,Irvine,Ayrshire,sct,KA11 4EZ,,,,,,,,The Co-operative Group,,,The Co-operative Group,,,,,,,,,,,,,,,,
,,tb,,Edinburgh - Dalry Road,,Co-op Food,114 Dalry Road,Edinburgh,Midlothian,sct,EH11 2EZ,,,,,,,,The Co-operative Group,,,The Co-operative Group,,,,,,,,,,,,,,,,
,,tb,,Edinburgh - Gilmerton South,,Co-op Food,Drum Road,Edinburgh,Midlothian,sct,EH17 8RJ,,,,,,,,The Co-operative Group,,,The Co-operative Group,,,,,,,,,,,,,,,,
,,tb,,Edinburgh - St John’s Road,,Co-op Food,141 St John’s Road,Edinburgh,Midlothian,sct,EH12 7SD,,,,,,,,The Co-operative Group,,,The Co-operative Group,,,,,,,,,,,,,,,,
,,tb,,Edinburgh - Stockbridge,,Co-op Food,"6-8 Comely Bank
Road",Edinburgh,Midlothian,sct,EH4 1HG,,,,,,,,The Co-operative Group,,,The Co-operative Group,,,,,,,,,,,,,,,,
,,tb,,Eliburn - Follyburn Place,,Co-op Food,1 Follyburn Place,Livingston,West Lothian,sct,EH54 6BF,,,,,,,,The Co-operative Group,,,The Co-operative Group,,,,,,,,,,,,,,,,
,,tb,,Ferniegair - Carlisle Road,,Co-op Food,1 Allanton Gardens,Hamilton,Lanarkshire,sct,ML3 7GQ,,,,,,,,The Co-operative Group,,,The Co-operative Group,,,,,,,,,,,,,,,,
,,tb,,Forres - Grantown Road,,Co-op Food,4 Grantown Road,Forres,Morayshire,sct,IV36 2UG,,,,,,,,The Co-operative Group,,,The Co-operative Group,,,,,,,,,,,,,,,,
,,tb,,Glasgow - 470 Great Western Road,,Co-op Food,470 Great Western Road,Glasgow,Lanarkshire,sct,G12 8EW,,,,,,,,The Co-operative Group,,,The Co-operative Group,,,,,,,,,,,,,,,,
,,tb,,Glasgow - Argyle Street,,Co-op Food,260 Argyle Street,Glasgow,Lanarkshire,sct,G2 8QW,,,,,,,,The Co-operative Group,,,The Co-operative Group,,,,,,,,,,,,,,,,
,,tb,,Glenrothes - Woodside Road,,Co-op Food,Woodside Road,Glenrothes,Fife,sct,KY7 4AF,,,,,,,,The Co-operative Group,,,The Co-operative Group,,,,,,,,,,,,,,,,
,,tb,,Golspie,,Co-op Food,Main Street,Golspie,Highlands,sct,KW10 6RA,,,,,,,,The Co-operative Group,,,The Co-operative Group,,,,,,,,,,,,,,,,
,,tb,,Greenock - Eldon Street,,Co-op Food,21 Eldon Street,Greenock,Inverclyde,sct,PA16 7UG,,,,,,,,The Co-operative Group,,,The Co-operative Group,,,,,,,,,,,,,,,,
,,tb,,Hillsborough - Lisburn Street,,Co-op Food,8 Lisburn Street,Hillsborough,County Down,nir,BT26 6AB,,,,,,,,The Co-operative Group,,,The Co-operative Group,,,,,,,,,,,,,,,,
,,tb,,Hurlford - Academy Street,,Co-op Food,2 Academy Street,Kilmarnock,Ayrshire,sct,KA1 5BU,,,,,,,,The Co-operative Group,,,The Co-operative Group,,,,,,,,,,,,,,,,
,,tb,,Invergordon - High Street,,Co-op Food,110 High Street,Invergordon,Ross-Shire,sct,IV18 0DL,,,,,,,,The Co-operative Group,,,The Co-operative Group,,,,,,,,,,,,,,,,
,,tb,,Kelso,,Co-op Food,Highcroft,Kelso,Roxburghshire,sct,TD5 7NB,,,,,,,,The Co-operative Group,,,The Co-operative Group,,,,,,,,,,,,,,,,
,,tb,,Kemnay,,Co-op Food,Station Road,Inverurie,Aberdeenshire,sct,AB51 5RB,,,,,,,,The Co-operative Group,,,The Co-operative Group,,,,,,,,,,,,,,,,
,,tb,,Kennoway - Bishops Court,,Co-op Food,11-16 Bishops court,Kennoway,Fife,sct,KY8 5LA,,,,,,,,The Co-operative Group,,,The Co-operative Group,,,,,,,,,,,,,,,,
,,tb,,Kilbirnie,,Co-op Food,61-63 Holmhead,Kilbirnie,North Ayrshire,sct,KA25 6BS,,,,,,,,The Co-operative Group,,,The Co-operative Group,,,,,,,,,,,,,,,,
,,tb,,Kilmacolm - Lochwinnoch Road,,Co-op Food,Campbell Place,Kilmacolm,Renfrewshire,sct,PA13 4HA,,,,,,,,The Co-operative Group,,,The Co-operative Group,,,,,,,,,,,,,,,,
,,tb,,Kingussie - High Street,,Co-op Food,24 High Street,Kingussie,Inverness-shire,sct,PH21 1HR,,,,,,,,The Co-operative Group,,,The Co-operative Group,,,,,,,,,,,,,,,,
,,tb,,Kirkcaldy - Lauder Road,,Co-op Food,Lauder Road,Kirkcaldy,Fife,sct,KY2 5BD,,,,,,,,The Co-operative Group,,,The Co-operative Group,,,,,,,,,,,,,,,,
,,tb,,Knockbreda,,Co-op Food,390 Ormeau Road,Belfast,County Antrim,nir,BT7 3HX,,,,,,,,The Co-operative Group,,,The Co-operative Group,,,,,,,,,,,,,,,,
,,tb,,Ladywell,,Co-op Food,Newyearfield,Livingston,West Lothian,sct,EH54 6AB,,,,,,,,The Co-operative Group,,,The Co-operative Group,,,,,,,,,,,,,,,,
,,tb,,Lenzie - Kirkintilloch Road,,Co-op Food,Kirkintilloch Road,Kirkintilloch,Glasgow,sct,G66 4LD,,,,,,,,The Co-operative Group,,,The Co-operative Group,,,,,,,,,,,,,,,,
,,tb,,Livingston,,Co-op Food,Bankton Retail Centre,Livingston,West Lothian,sct,EH54 9DA,,,,,,,,The Co-operative Group,,,The Co-operative Group,,,,,,,,,,,,,,,,
,,tb,,"Lossiemouth - Queens
Street",,Co-op Food,44 Queen Street,Lossiemouth,,sct,IV31 6PN,,,,,,,,The Co-operative Group,,,The Co-operative Group,,,,,,,,,,,,,,,,
,,tb,,Main Road - Cardross,,Co-op Food,Main Road,Dumbarton,Dunbartonshire,sct,G82 5PD,,,,,,,,The Co-operative Group,,,The Co-operative Group,,,,,,,,,,,,,,,,
,,tb,,Markinch,,Co-op Food,20 High Street,Markinch,Fife,sct,KY7 6DQ,,,,,,,,The Co-operative Group,,,The Co-operative Group,,,,,,,,,,,,,,,,
,,tb,,Mayfield,,Co-op Food,14-15 Mayfield Terrace,Arbroath,Angus,sct,DD11 5DJ,,,,,,,,The Co-operative Group,,,The Co-operative Group,,,,,,,,,,,,,,,,
,,tb,,Mearnskirk - Mearns Road,,Co-op Food,Unit 2 421 Mearns Road,Newton Mearns,Renfrewshire,sct,G77 5RY,,,,,,,,The Co-operative Group,,,The Co-operative Group,,,,,,,,,,,,,,,,
,,tb,,Milton of Campsie - Antermony Road,,Co-op Food,Antermony Road,Glasgow,Lanarkshire,sct,G66 8DB,,,,,,,,The Co-operative Group,,,The Co-operative Group,,,,,,,,,,,,,,,,
,,tb,,Muir Of Ord,,Co-op Food,Great North Road,Muir Of Ord,Ross-Shire,sct,IV6 7TP,,,,,,,,The Co-operative Group,,,The Co-operative Group,,,,,,,,,,,,,,,,
,,tb,,Musselburgh,,Co-op Food,Clayknowes Road,Musselburgh,Midlothian,sct,EH21 6UW,,,,,,,,The Co-operative Group,,,The Co-operative Group,,,,,,,,,,,,,,,,
,,tb,,Nairn - King Street,,Co-op Food,King Street,Nairn,Highlands,sct,IV12 4DN,,,,,,,,The Co-operative Group,,,The Co-operative Group,,,,,,,,,,,,,,,,
,,tb,,"Newton Mearns - Broom
Road East",,Co-op Food,86 Broom Road East,Glasgow,Lanarkshire,sct,G77 5SR,,,,,,,,The Co-operative Group,,,The Co-operative Group,,,,,,,,,,,,,,,,
,,tb,,Newtown St Boswells,,Co-op Food,Station Yard,Melrose,Roxburghshire,sct,TD6 0PP,,,,,,,,The Co-operative Group,,,The Co-operative Group,,,,,,,,,,,,,,,,
,,tb,,Old Park Road,,Co-op Food,523-525 Old Park Road,Belfast,County Antrim,nir,BT14 6QU,,,,,,,,The Co-operative Group,,,The Co-operative Group,,,,,,,,,,,,,,,,
,,tb,,Panmuirfield,,Co-op Food,134 Lawers Drive,Dundee,Angus,sct,DD5 3UN,,,,,,,,The Co-operative Group,,,The Co-operative Group,,,,,,,,,,,,,,,,
,,tb,,Perth - Darnhall Drive,,Co-op Food,17 Darnhall Drive,Perth,Perthshire,sct,PH2 0HD,,,,,,,,The Co-operative Group,,,The Co-operative Group,,,,,,,,,,,,,,,,
,,tb,,Perth - Tulloch Square,,Co-op Food,Tulloch Square,Perth,Perthshire,sct,PH1 2PW,,,,,,,,The Co-operative Group,,,The Co-operative Group,,,,,,,,,,,,,,,,
,,tb,,Petrol Stonehaven - Kirkton Road,,Co-op Food,Kirkton Road,Stonehaven,Kincardineshire,sct,AB39 2HQ,,,,,,,,The Co-operative Group,,,The Co-operative Group,,,,,,,,,,,,,,,,
,,tb,,Pitmedden,,Co-op Food,Tarves Road,Ellon,Aberdeenshire,sct,AB41 7NY,,,,,,,,The Co-operative Group,,,The Co-operative Group,,,,,,,,,,,,,,,,
,,tb,,Portree - Bank Street,,Co-op Food,Bank Street,Portree,Highlands,sct,IV51 9DA,,,,,,,,The Co-operative Group,,,The Co-operative Group,,,,,,,,,,,,,,,,
,,tb,,Redcloak,,Co-op Food,Redcloak Drive,Stonehaven,Kincardineshire,sct,AB39 2XJ,,,,,,,,The Co-operative Group,,,The Co-operative Group,,,,,,,,,,,,,,,,
,,tb,,Robertson Road,,Co-op Food,Robertson Road,Dunfermline,Fife,sct,KY12 0XS,,,,,,,,The Co-operative Group,,,The Co-operative Group,,,,,,,,,,,,,,,,
,,tb,,Scone,,Co-op Food,60 Perth Road,Perth,Perthshire,sct,PH2 6JL,,,,,,,,The Co-operative Group,,,The Co-operative Group,,,,,,,,,,,,,,,,
,,tb,,Stirling,,Co-op Food,Pike Road,Stirling,Stirlingshire,sct,FK7 7XJ,,,,,,,,The Co-operative Group,,,The Co-operative Group,,,,,,,,,,,,,,,,
,,tb,,Strichen,,Co-op Food,2-4 Bridge Street,Fraserburgh,Aberdeenshire,sct,AB43 6SS,,,,,,,,The Co-operative Group,,,The Co-operative Group,,,,,,,,,,,,,,,,
,,tb,,Telford Street,,Co-op Food,74 Telford Street,Inverness,Inverness-shire,sct,IV3 5LS,,,,,,,,The Co-operative Group,,,The Co-operative Group,,,,,,,,,,,,,,,,
,,tb,,The Square,,Co-op Food,16 High St,Kirriemuir,Angus,sct,DD8 4EY,,,,,,,,The Co-operative Group,,,The Co-operative Group,,,,,,,,,,,,,,,,
,,tb,,Tollcross - Glasgow,,Co-op Food,997 Tollcross Road,Glasgow,Lanarkshire,sct,G32 8UU,,,,,,,,The Co-operative Group,,,The Co-operative Group,,,,,,,,,,,,,,,,
,,tb,,West Linton,,Co-op Food,21-23 Main Street,West Linton,Peeblesshire,sct,EH46 7EE,,,,,,,,The Co-operative Group,,,The Co-operative Group,,,,,,,,,,,,,,,,
,,tb,,Wester Inshes - Inverness,,Co-op Food,West Inches Place,Inverness,Inverness-shire,sct,IV2 5HZ,,,,,,,,The Co-operative Group,,,The Co-operative Group,,,,,,,,,,,,,,,,
,,tb,,Wigtown,,Co-op Food,30 North Main Street,Newton Stewart,Wigtownshire,sct,DG8 9HJ,,,,,,,,The Co-operative Group,,,The Co-operative Group,,,,,,,,,,,,,,,,
,,tb,,Store Name,,Co-op Food,Address,Post Town,County,Country,Post Code,,,,,,,,The Co-operative Group,,,The Co-operative Group,,,,,,,,,,,,,,,,
,,tb,,Aston,,Co-op Food,21-23 Central Drive,Deeside,Flintshire,pla,CH5 1LR,,,,,,,,The Co-operative Group,,,The Co-operative Group,,,,,,,,,,,,,,,,
,,tb,,Bodelwyddan - Ty Fry Lane,,Co-op Food,Ty Fry Lane,Rhyl,Denbighshire,pla,LL18 5TE,,,,,,,,The Co-operative Group,,,The Co-operative Group,,,,,,,,,,,,,,,,
,,tb,,Broughton - Main Road,,Co-op Food,Main Road,Chester,Flintshire,pla,CH4 0NR,,,,,,,,The Co-operative Group,,,The Co-operative Group,,,,,,,,,,,,,,,,
,,tb,,Bryncae,,Co-op Food,Bridgend Road,Pontyclun,Mid Glamorgan,pla,CF72 9RP,,,,,,,,The Co-operative Group,,,The Co-operative Group,,,,,,,,,,,,,,,,
,,tb,,Bryncoch - Main Road,,Co-op Food,Main Road,Neath,West Glamorgan,pla,SA10 7TW,,,,,,,,The Co-operative Group,,,The Co-operative Group,,,,,,,,,,,,,,,,
,,tb,,Builth Wells - Brecon Road,,Co-op Food,Brecon Road,Builth Wells,Powys,pla,LD2 3ED,,,,,,,,The Co-operative Group,,,The Co-operative Group,,,,,,,,,,,,,,,,
,,tb,,Cardiff - Capital Quarter,,Co-op Food,Tyndall Street,Cardiff,South Glamorgan,pla,CF10 4BQ,,,,,,,,The Co-operative Group,,,The Co-operative Group,,,,,,,,,,,,,,,,
,,tb,,Cardiff - Cyncoed Road,,Co-op Food,360 Cyncoed Road,Cardiff,South Glamorgan,pla,CF23 6RZ,,,,,,,,The Co-operative Group,,,The Co-operative Group,,,,,,,,,,,,,,,,
,,tb,,Cardiff - Heol Y Deri,,Co-op Food,8A-8B Heol Y Deri,Cardiff,South Glamorgan,pla,CF14 6HF,,,,,,,,The Co-operative Group,,,The Co-operative Group,,,,,,,,,,,,,,,,
,,tb,,Cardiff - Kings Road,,Co-op Food,Kings Road,Cardiff,South Glamorgan,pla,CF11 9DF,,,,,,,,The Co-operative Group,,,The Co-operative Group,,,,,,,,,,,,,,,,
,,tb,,Cardiff - Pierhead Street,,Co-op Food,Pierhead Street,Cardiff,South Glamorgan,pla,CF10 4QP,,,,,,,,The Co-operative Group,,,The Co-operative Group,,,,,,,,,,,,,,,,
,,tb,,Cardiff - Pontcanna Street,,Co-op Food,89 Pontcanna Street,Cardiff,South Glamorgan,pla,CF11 9HS,,,,,,,,The Co-operative Group,,,The Co-operative Group,,,,,,,,,,,,,,,,
,,tb,,Cardiff - Senghenydd Road,,Co-op Food,Senghenydd Road,Cardiff,South Glamorgan,pla,CF10 3QN,,,,,,,,The Co-operative Group,,,The Co-operative Group,,,,,,,,,,,,,,,,
,,tb,,Cardiff - Waungron Road,,Co-op Food,12 Waungron Road,Cardiff,South Glamorgan,pla,CF5 2JJ,,,,,,,,The Co-operative Group,,,The Co-operative Group,,,,,,,,,,,,,,,,
,,tb,,Carmarthen,,Co-op Food,46 King Street,Carmarthen,Carmarthenshire,pla,SA31 1BH,,,,,,,,The Co-operative Group,,,The Co-operative Group,,,,,,,,,,,,,,,,
,,tb,,Crwys Road,,Co-op Food,Crwys Road,Cardiff,South Glamorgan,pla,CF24 4NE,,,,,,,,The Co-operative Group,,,The Co-operative Group,,,,,,,,,,,,,,,,
,,tb,,Cwmavon,,Co-op Food,Heol Jiwbill,Port Talbot,Neath Port Talbot,pla,SA12 9NR,,,,,,,,The Co-operative Group,,,The Co-operative Group,,,,,,,,,,,,,,,,
,,tb,,Deganwy - Park Road,,Co-op Food,Junction of Pentwyn and Park Road,Conwy,Gwynedd,pla,LL31 9TH,,,,,,,,The Co-operative Group,,,The Co-operative Group,,,,,,,,,,,,,,,,
,,tb,,Garnant - Cwmamman Road,,Co-op Food,Cwmamman Road,Ammanford,Carmarthenshire,pla,SA18 1LS,,,,,,,,The Co-operative Group,,,The Co-operative Group,,,,,,,,,,,,,,,,
,,tb,,Gilfach Goch - Garden Village,,Co-op Food,Garden Village,Porth,Glamorgan,pla,CF39 8UH,,,,,,,,The Co-operative Group,,,The Co-operative Group,,,,,,,,,,,,,,,,
,,tb,,Gowerton - Sterry Road,,Co-op Food,29 Sterry Road,Swansea,West Glamorgan,pla,SA4 3BW,,,,,,,,The Co-operative Group,,,The Co-operative Group,,,,,,,,,,,,,,,,
,,tb,,Griffithstown,,Co-op Food,5 Windsor Road,Pontypool,Torfaen,pla,NP4 5HY,,,,,,,,The Co-operative Group,,,The Co-operative Group,,,,,,,,,,,,,,,,
,,tb,,Hope - Hawarden Road,,Co-op Food,The Red Lion - Hawarden Road,Wrexham,Flintshire,pla,LL12 9NG,,,,,,,,The Co-operative Group,,,The Co-operative Group,,,,,,,,,,,,,,,,
,,tb,,Killay - The Precinct,,Co-op Food,Unit 6 The Precinct,Swansea,West Glamorgan,pla,SA2 7BA,,,,,,,,The Co-operative Group,,,The Co-operative Group,,,,,,,,,,,,,,,,
,,tb,,Llandaff North - Station Road,,Co-op Food,143 Station Road,Cardiff,South Glamorgan,pla,CF14 2FF,,,,,,,,The Co-operative Group,,,The Co-operative Group,,,,,,,,,,,,,,,,
,,tb,,Llandybie - High Street,,Co-op Food,High Street,Ammanford,Carmarthenshire,pla,SA18 3JA,,,,,,,,The Co-operative Group,,,The Co-operative Group,,,,,,,,,,,,,,,,
,,tb,,Machen - Commercial Road,,Co-op Food,70 Commercial Road,Caerphilly,Monmouthshire,pla,CF83 8PG,,,,,,,,The Co-operative Group,,,The Co-operative Group,,,,,,,,,,,,,,,,
,,tb,,Magor - Newport Road,,Co-op Food,Newport Road,Caldicot,Monmouthshire,pla,NP26 3EG,,,,,,,,The Co-operative Group,,,The Co-operative Group,,,,,,,,,,,,,,,,
,,tb,,Market Street - Rhos,,Co-op Food,Market Street,Wrexham,Clwyd,pla,LL14 1AF,,,,,,,,The Co-operative Group,,,The Co-operative Group,,,,,,,,,,,,,,,,
,,tb,,Nelson,,Co-op Food,6-10 Commercial Street,Treharris,Mid Glamorgan,pla,CF46 6NF,,,,,,,,The Co-operative Group,,,The Co-operative Group,,,,,,,,,,,,,,,,
,,tb,,Penyffordd - Hawarden Road,,Co-op Food,Hawarden Road,Penyffordd,Flintshire,pla,CH4 0JE,,,,,,,,The Co-operative Group,,,The Co-operative Group,,,,,,,,,,,,,,,,
,,tb,,Petrol Llandaff,,Co-op Food,Llantrisant Road,Cardiff,South Glamorgan,pla,CF5 2PW,,,,,,,,The Co-operative Group,,,The Co-operative Group,,,,,,,,,,,,,,,,
,,tb,,Petrol Old Colwyn,,Co-op Food,Colwyn Service Station,Colwyn Bay,Conwy,pla,LL29 9YG,,,,,,,,The Co-operative Group,,,The Co-operative Group,,,,,,,,,,,,,,,,
,,tb,,Petrol Pontyates - 13 Heol Y Meinci,,Co-op Food,13 Heol Y Meinciau,Pontyates,Carmarthenshire,pla,SA15 5TS,,,,,,,,The Co-operative Group,,,The Co-operative Group,,,,,,,,,,,,,,,,
,,tb,,Petrol Rhuddlan,,Co-op Food,Rhyl Road,Rhuddlan,Denbighshire,pla,LL18 2TS,,,,,,,,The Co-operative Group,,,The Co-operative Group,,,,,,,,,,,,,,,,
,,tb,,Pontypridd - Church Village,,Co-op Food,The Precinct,Pontypridd,Rhondda Cynon Taff,pla,CF38 1SB,,,,,,,,The Co-operative Group,,,The Co-operative Group,,,,,,,,,,,,,,,,
,,tb,,Prestatyn - Ffordd Penrhwylfa,,Co-op Food,Ffordd Penrhwylfa,Prestatyn,Clwyd,pla,LL19 8BP,,,,,,,,The Co-operative Group,,,The Co-operative Group,,,,,,,,,,,,,,,,
,,tb,,Prestatyn - Victoria Road,,Co-op Food,Victoria Road,Prestatyn,Clwyd,pla,LL19 7TD,,,,,,,,The Co-operative Group,,,The Co-operative Group,,,,,,,,,,,,,,,,
,,tb,,Radyr - Station Road,,Co-op Food,4 Station Road,Cardiff,South Glamorgan,pla,CF15 8AA,,,,,,,,The Co-operative Group,,,The Co-operative Group,,,,,,,,,,,,,,,,
,,tb,,Rhos on Sea - Colwyn Avenue,,Co-op Food,Colwyn Avenue,Colwyn Bay,Clwyd,pla,LL28 4RD,,,,,,,,The Co-operative Group,,,The Co-operative Group,,,,,,,,,,,,,,,,
,,tb,,Rockfield Road - Monmouth,,Co-op Food,Rockfield Road,Monmouth,Gwent,pla,NP25 5AU,,,,,,,,The Co-operative Group,,,The Co-operative Group,,,,,,,,,,,,,,,,
,,tb,,Rogerstone - Tregwilym Road,,Co-op Food,Tregwilym Road,Newport,Gwent,pla,NP10 9EJ,,,,,,,,The Co-operative Group,,,The Co-operative Group,,,,,,,,,,,,,,,,
,,tb,,Rossett - Chester Road,,Co-op Food,Chester Road,Wrexham,Clwyd,pla,LL12 0HW,,,,,,,,The Co-operative Group,,,The Co-operative Group,,,,,,,,,,,,,,,,
,,tb,,Sandy Lane - Llanelli,,Co-op Food,Sandy Road,Llanelli,Carmarthenshire,pla,SA15 4BR,,,,,,,,The Co-operative Group,,,The Co-operative Group,,,,,,,,,,,,,,,,
,,tb,,Sketty - Gower Road,,Co-op Food,,Swansea,,pla,SA2 9BZ,,,,,,,,The Co-operative Group,,,The Co-operative Group,,,,,,,,,,,,,,,,
,,tb,,Somerton,,Co-op Food,Cromwell Road,Newport,Gwent,pla,NP19 0HT,,,,,,,,The Co-operative Group,,,The Co-operative Group,,,,,,,,,,,,,,,,
,,tb,,St Athan - Gileston Road,,Co-op Food,Gileston Road,Barry,Vale of Glamorgan,pla,CF62 4PZ,,,,,,,,The Co-operative Group,,,The Co-operative Group,,,,,,,,,,,,,,,,
,,tb,,St Davids Park,,Co-op Food,St. Davids Park,Deeside,Flintshire,pla,CH5 3XN,,,,,,,,The Co-operative Group,,,The Co-operative Group,,,,,,,,,,,,,,,,
,,tb,,Station Road - Llanishen,,Co-op Food,46-48 Station Road,Cardiff,South Glamorgan,pla,CF14 5LU,,,,,,,,The Co-operative Group,,,The Co-operative Group,,,,,,,,,,,,,,,,
,,tb,,Swansea - Bishopston Road,,Co-op Food,Bishopston Road,Swansea,West Glamorgan,pla,SA3 3EN,,,,,,,,The Co-operative Group,,,The Co-operative Group,,,,,,,,,,,,,,,,
,,tb,,Swansea - Bryn Road,,Co-op Food,Bryn Road,Swansea,West Glamorgan,pla,SA2 0AU,,,,,,,,The Co-operative Group,,,The Co-operative Group,,,,,,,,,,,,,,,,
,,tb,,Swansea - Trawler Road,,Co-op Food,Trawler Road,Swansea,West Glamorgan,pla,SA1 1LB,,,,,,,,The Co-operative Group,,,The Co-operative Group,,,,,,,,,,,,,,,,
,,tb,,Swansea - Walter Road,,Co-op Food,128 Walter Road,Abertawe,Glamorgan,pla,SA1 5RG,,,,,,,,The Co-operative Group,,,The Co-operative Group,,,,,,,,,,,,,,,,
,,tb,,Tenby - Heywood Lane,,Co-op Food,"The Green, Heywood Lane",Tenby,Pembrokeshire,pla,SA70 8EU,,,,,,,,The Co-operative Group,,,The Co-operative Group,,,,,,,,,,,,,,,,
,,tb,,TyCoch - Carnglass Road,,Co-op Food,85-87 Carnglass Road,Swansea,West Glamorgan,pla,SA2 9BL,,,,,,,,The Co-operative Group,,,The Co-operative Group,,,,,,,,,,,,,,,,
,,tb,,Wrexham - Lord Street,,Co-op Food,5 Lord Street,Wrexham,Clwyd,pla,LL11 1LG,,,,,,,,The Co-operative Group,,,The Co-operative Group,,,,,,,,,,,,,,,,
,,tb,,Wrexham Johnstown,,Co-op Food,Ruabon Road,Wrexham,Clwyd,pla,LL14 6PU,,,,,,,,The Co-operative Group,,,The Co-operative Group,,,,,,,,,,,,,,,,
